{"type": "FeatureCollection", "id": "http://www.lexvo.org/page/iso639-1/tt", "name": "tt", "features": [{"type": "Feature", "id": "http://www.semwebtech.org/mondial/countries/TT", "name": "", "dateprops": ["http://www.semwebtech.org/mondial/10/meta#independenceDate", "http://www.semwebtech.org/mondial/10/meta#independenceDate"], "properties": {"http://rdfs.org/ns/void#inDataset": ["http://www.semwebtech.org/mondial/md_dataset"], "http://www.opengis.net/ont/geosparql#hasGeometry": ["http://www.semwebtech.org/mondial/countries/TT_geom"], "http://www.opengis.net/ont/geosparql#hasMetricArea": ["5130"], "http://www.semwebtech.org/mondial/10/meta#capital": ["http://www.semwebtech.org/mondial/countries/TT/cities/Port-of-Spain"], "http://www.semwebtech.org/mondial/10/meta#carCode": ["http://www.lexvo.org/page/iso639-1/tt"], "http://www.semwebtech.org/mondial/10/meta#gdpAgri": ["0.3"], "http://www.semwebtech.org/mondial/10/meta#gdpInd": ["57.7"], "http://www.semwebtech.org/mondial/10/meta#gdpServ": ["42"], "http://www.semwebtech.org/mondial/10/meta#gdpTotal": ["27130"], "http://www.semwebtech.org/mondial/10/meta#government": ["http://www.wikidata.org/entity/Q3043547"], "http://www.semwebtech.org/mondial/10/meta#hasCity": ["http://www.semwebtech.org/mondial/countries/TT/cities/Port-of-Spain"], "http://www.semwebtech.org/mondial/10/meta#independenceDate": ["1962-08-31"], "http://www.semwebtech.org/mondial/10/meta#infantMortality": ["24.82"], "http://www.semwebtech.org/mondial/10/meta#unemployment": ["5.9"], "http://www.semwebtech.org/mondial/10/meta#wasDependentOf": ["http://www.semwebtech.org/mondial/countries/GB"], "http://www.w3.org/1999/02/22-rdf-syntax-ns#type": ["http://www.semwebtech.org/mondial/10/meta#Country"], "http://www.w3.org/2000/01/rdf-schema#label": ["Trinidad and Tobago"], "http://www.w3.org/2004/02/skos/core#prefLabel": ["the Republic of Trinidad and Tobago"], "http://www.w3.org/ns/sosa/hasObservation": ["http://www.semwebtech.org/mondial/countries/TT_obeth1", "http://www.semwebtech.org/mondial/countries/TT_obeth2", "http://www.semwebtech.org/mondial/countries/TT_obeth3", "http://www.semwebtech.org/mondial/countries/TT_obeth4", "http://www.semwebtech.org/mondial/countries/TT_obeth5", "http://www.semwebtech.org/mondial/countries/TT_obeth6", "http://www.semwebtech.org/mondial/countries/TT_obeth7", "http://www.semwebtech.org/mondial/countries/TT_obpop", "http://www.semwebtech.org/mondial/countries/TT_obpophist0", "http://www.semwebtech.org/mondial/countries/TT_obpophist1", "http://www.semwebtech.org/mondial/countries/TT_obpophist2", "http://www.semwebtech.org/mondial/countries/TT_obpophist3", "http://www.semwebtech.org/mondial/countries/TT_obpophist4", "http://www.semwebtech.org/mondial/countries/TT_obpophist5", "http://www.semwebtech.org/mondial/countries/TT_obpophist6", "http://www.semwebtech.org/mondial/countries/TT_obrel1", "http://www.semwebtech.org/mondial/countries/TT_obrel2", "http://www.semwebtech.org/mondial/countries/TT_obrel3", "http://www.semwebtech.org/mondial/countries/TT_obrel4", "http://www.semwebtech.org/mondial/countries/TT_obrel5", "http://www.semwebtech.org/mondial/countries/TT_obrel6", "http://www.semwebtech.org/mondial/countries/TT_obrel7"]}, "geometry": {"type": "MultiPolygon", "coordinates": [[[[-61.002268, 10.699368], [-61.020863, 10.702704], [-61.032704, 10.683539], [-61.038075, 10.653632], [-61.036977, 10.624905], [-61.017568, 10.564114], [-61.013539, 10.534491], [-61.04247, 10.509955], [-61.04186, 10.481879], [-61.038442, 10.46365], [-61.028147, 10.408515], [-61.02302, 10.394843], [-61.016347, 10.382148], [-60.998443, 10.355943], [-60.961293, 10.330024], [-60.990224, 10.299262], [-61.002797, 10.247545], [-61.003326, 10.189114], [-60.996002, 10.138251], [-61.017486, 10.14289], [-61.041575, 10.135647], [-61.06432, 10.121812], [-61.082021, 10.106879], [-61.09968, 10.095201], [-61.122385, 10.086819], [-61.167348, 10.076158], [-61.177642, 10.075181], [-61.19164, 10.073798], [-61.253, 10.083645], [-61.275014, 10.081732], [-61.338694, 10.069322], [-61.41747, 10.076158], [-61.503082, 10.069322], [-61.50414, 10.069525], [-61.544097, 10.076158], [-61.553456, 10.073879], [-61.581939, 10.062567], [-61.593129, 10.061428], [-61.612782, 10.056789], [-61.622914, 10.05565], [-61.637034, 10.057807], [-61.646962, 10.062974], [-61.656077, 10.069648], [-61.667592, 10.076158], [-61.686187, 10.08161], [-61.706695, 10.08397], [-61.793324, 10.084133], [-61.817047, 10.081366], [-61.835194, 10.07274], [-61.849843, 10.061469], [-61.869293, 10.050035], [-61.88976, 10.042304], [-61.907216, 10.04206], [-61.9287, 10.056464], [-61.918935, 10.070014], [-61.886708, 10.086737], [-61.881947, 10.090481], [-61.870961, 10.093817], [-61.838531, 10.09984], [-61.831939, 10.106147], [-61.821523, 10.121161], [-61.805898, 10.13288], [-61.789174, 10.140937], [-61.712066, 10.163642], [-61.707387, 10.16588], [-61.669057, 10.184027], [-61.639312, 10.210069], [-61.638783, 10.210517], [-61.639638, 10.240668], [-61.626943, 10.24726], [-61.611806, 10.247504], [-61.560129, 10.238715], [-61.520782, 10.240139], [-61.517812, 10.240261], [-61.506581, 10.240668], [-61.495269, 10.245022], [-61.481923, 10.255683], [-61.469838, 10.269273], [-61.462148, 10.282213], [-61.458363, 10.302191], [-61.459625, 10.309719], [-61.461252, 10.318996], [-61.466298, 10.335191], [-61.468984, 10.353949], [-61.470815, 10.359361], [-61.479563, 10.366604], [-61.482655, 10.370998], [-61.483062, 10.376451], [-61.480336, 10.377916], [-61.476918, 10.378607], [-61.475209, 10.381537], [-61.476186, 10.389309], [-61.482004, 10.408881], [-61.485748, 10.415717], [-61.487945, 10.430121], [-61.482249, 10.449856], [-61.468984, 10.480862], [-61.46231, 10.518866], [-61.462148, 10.558173], [-61.472279, 10.594875], [-61.496246, 10.624905], [-61.488881, 10.631049], [-61.528798, 10.657904], [-61.549062, 10.66706], [-61.577626, 10.679918], [-61.599029, 10.684394], [-61.650014, 10.687812], [-61.656361, 10.689765], [-61.661285, 10.695136], [-61.667592, 10.706773], [-61.615631, 10.742174], [-61.602122, 10.747748], [-61.561147, 10.74433], [-61.515126, 10.75495], [-61.490102, 10.754625], [-61.485748, 10.754584], [-61.473215, 10.76024], [-61.465566, 10.77025], [-61.460439, 10.774359], [-61.455312, 10.76203], [-61.447865, 10.76203], [-61.447581, 10.765367], [-61.447865, 10.775702], [-61.441721, 10.775702], [-61.441029, 10.770657], [-61.439361, 10.768012], [-61.437001, 10.765855], [-61.434234, 10.76203], [-61.441721, 10.754584], [-61.43342, 10.756537], [-61.427561, 10.761176], [-61.423655, 10.765937], [-61.421213, 10.768256], [-61.401926, 10.768866], [-61.400054, 10.768256], [-61.391835, 10.775621], [-61.372914, 10.797512], [-61.366567, 10.802965], [-61.35261, 10.804104], [-61.34911, 10.804389], [-61.296132, 10.798041], [-61.180084, 10.797553], [-61.17158, 10.803941], [-61.154856, 10.816474], [-61.096547, 10.823432], [-61.078521, 10.830959], [-60.948842, 10.845282], [-60.907297, 10.837144], [-60.949778, 10.763495], [-61.002268, 10.699368]]], [[[-60.530507, 11.35106], [-60.523061, 11.343655], [-60.522084, 11.318834], [-60.525543, 11.288153], [-60.53303, 11.266506], [-60.544179, 11.26911], [-60.550364, 11.26911], [-60.556508, 11.254096], [-60.565297, 11.252427], [-60.575266, 11.255764], [-60.585113, 11.25552], [-60.587066, 11.251125], [-60.60204, 11.231431], [-60.60558, 11.230658], [-60.628774, 11.216539], [-60.636057, 11.210761], [-60.647125, 11.204169], [-60.659779, 11.204291], [-60.671864, 11.206732], [-60.681304, 11.207099], [-60.74177, 11.177069], [-60.759511, 11.172919], [-60.786448, 11.14997], [-60.803334, 11.143256], [-60.810414, 11.159247], [-60.825429, 11.151801], [-60.839345, 11.15412], [-60.847524, 11.163967], [-60.845204, 11.179145], [-60.836741, 11.183336], [-60.822865, 11.185533], [-60.809926, 11.19066], [-60.80427, 11.203681], [-60.794342, 11.21662], [-60.709706, 11.271308], [-60.69164, 11.288886], [-60.681304, 11.296454], [-60.668609, 11.302924], [-60.635813, 11.314846], [-60.607574, 11.320705], [-60.595815, 11.327297], [-60.583648, 11.329535], [-60.567738, 11.320299], [-60.560374, 11.321194], [-60.541331, 11.343411], [-60.530507, 11.35106]]]]}}], "numberMatched": 1, "numberReturned": 1, "bbox": [-61.9287, 10.04206, -60.522084, 11.35106], "crs": "http://www.opengis.net/def/crs/EPSG/0/4326"}