{"type": "FeatureCollection", "id": "http://www.lexvo.org/page/iso639-1/wf", "name": "wf", "features": [{"type": "Feature", "id": "http://www.semwebtech.org/mondial/countries/WF", "name": "", "dateprops": [], "properties": {"http://rdfs.org/ns/void#inDataset": ["http://www.semwebtech.org/mondial/md_dataset"], "http://www.opengis.net/ont/geosparql#hasGeometry": ["http://www.semwebtech.org/mondial/countries/WF_geom"], "http://www.opengis.net/ont/geosparql#hasMetricArea": ["274"], "http://www.semwebtech.org/mondial/10/meta#capital": ["http://www.semwebtech.org/mondial/countries/WF/cities/Mata-Utu"], "http://www.semwebtech.org/mondial/10/meta#carCode": ["http://www.lexvo.org/page/iso639-1/wf"], "http://www.semwebtech.org/mondial/10/meta#dependentOf": ["http://www.semwebtech.org/mondial/countries/F"], "http://www.semwebtech.org/mondial/10/meta#gdpTotal": ["60"], "http://www.semwebtech.org/mondial/10/meta#government": ["parliamentary representative democratic French overseas collectivity"], "http://www.semwebtech.org/mondial/10/meta#hasCity": ["http://www.semwebtech.org/mondial/countries/WF/cities/Mata-Utu"], "http://www.semwebtech.org/mondial/10/meta#infantMortality": ["4.49"], "http://www.semwebtech.org/mondial/10/meta#unemployment": ["12.2"], "http://www.w3.org/1999/02/22-rdf-syntax-ns#type": ["http://www.semwebtech.org/mondial/10/meta#Country"], "http://www.w3.org/2000/01/rdf-schema#label": ["Wallis and Futuna"], "http://www.w3.org/2004/02/skos/core#prefLabel": ["Uvea mo Futuna"], "http://www.w3.org/ns/sosa/hasObservation": ["http://www.semwebtech.org/mondial/countries/WF_obeth1", "http://www.semwebtech.org/mondial/countries/WF_obpop", "http://www.semwebtech.org/mondial/countries/WF_obpophist0", "http://www.semwebtech.org/mondial/countries/WF_obpophist1", "http://www.semwebtech.org/mondial/countries/WF_obpophist2", "http://www.semwebtech.org/mondial/countries/WF_obpophist3", "http://www.semwebtech.org/mondial/countries/WF_obpophist4", "http://www.semwebtech.org/mondial/countries/WF_obpophist5", "http://www.semwebtech.org/mondial/countries/WF_obpophist6", "http://www.semwebtech.org/mondial/countries/WF_obpophist7", "http://www.semwebtech.org/mondial/countries/WF_obrel1", "http://www.semwebtech.org/mondial/countries/WF_obrel2", "http://www.semwebtech.org/mondial/countries/WF_obrel3"]}, "geometry": {"type": "MultiPolygon", "coordinates": [[[[-178.142323, -14.243585], [-178.108144, -14.278985], [-178.105092, -14.285252], [-178.092478, -14.288995], [-178.046742, -14.312595], [-178.046742, -14.319431], [-178.100046, -14.316013], [-178.108835, -14.319431], [-178.121449, -14.313897], [-178.146921, -14.310154], [-178.156606, -14.305108], [-178.175242, -14.277032], [-178.18574, -14.248224], [-178.178049, -14.232599], [-178.142323, -14.243585]]], [[[-176.155466, -13.208917], [-176.143015, -13.230727], [-176.130564, -13.247654], [-176.1256, -13.264093], [-176.13561, -13.284763], [-176.132151, -13.288507], [-176.130564, -13.291192], [-176.128163, -13.298272], [-176.14448, -13.300877], [-176.147654, -13.310479], [-176.141835, -13.33587], [-176.147165, -13.347752], [-176.159495, -13.350274], [-176.173207, -13.346449], [-176.18281, -13.339288], [-176.183909, -13.323826], [-176.194773, -13.306736], [-176.199574, -13.290623], [-176.18281, -13.277927], [-176.190175, -13.257013], [-176.184031, -13.237888], [-176.1704, -13.221449], [-176.155466, -13.208917]]]]}}], "numberMatched": 1, "numberReturned": 1, "bbox": [-178.18574, -14.319431, -176.1256, -13.208917], "crs": "http://www.opengis.net/def/crs/EPSG/0/4326"}