{"type": "FeatureCollection", "id": "http://www.lexvo.org/page/iso639-1/bds", "name": "bds", "features": [{"type": "Feature", "id": "http://www.semwebtech.org/mondial/countries/BDS", "name": "", "dateprops": ["http://www.semwebtech.org/mondial/10/meta#independenceDate", "http://www.semwebtech.org/mondial/10/meta#independenceDate"], "properties": {"http://rdfs.org/ns/void#inDataset": ["http://www.semwebtech.org/mondial/md_dataset"], "http://www.opengis.net/ont/geosparql#hasGeometry": ["http://www.semwebtech.org/mondial/countries/BDS_geom"], "http://www.opengis.net/ont/geosparql#hasMetricArea": ["430"], "http://www.semwebtech.org/mondial/10/meta#capital": ["http://www.semwebtech.org/mondial/countries/BDS/cities/Bridgetown"], "http://www.semwebtech.org/mondial/10/meta#carCode": ["http://www.lexvo.org/page/iso639-1/bds"], "http://www.semwebtech.org/mondial/10/meta#gdpAgri": ["3.1"], "http://www.semwebtech.org/mondial/10/meta#gdpInd": ["13.9"], "http://www.semwebtech.org/mondial/10/meta#gdpServ": ["83"], "http://www.semwebtech.org/mondial/10/meta#gdpTotal": ["4262"], "http://www.semwebtech.org/mondial/10/meta#government": ["parliamentary democracy and a Commonwealth realm"], "http://www.semwebtech.org/mondial/10/meta#hasCity": ["http://www.semwebtech.org/mondial/countries/BDS/cities/Bridgetown"], "http://www.semwebtech.org/mondial/10/meta#independenceDate": ["1966-11-30"], "http://www.semwebtech.org/mondial/10/meta#infantMortality": ["10.93"], "http://www.semwebtech.org/mondial/10/meta#unemployment": ["11.4"], "http://www.semwebtech.org/mondial/10/meta#wasDependentOf": ["http://www.semwebtech.org/mondial/countries/GB"], "http://www.w3.org/1999/02/22-rdf-syntax-ns#type": ["http://www.semwebtech.org/mondial/10/meta#Country"], "http://www.w3.org/2000/01/rdf-schema#label": ["Barbados"], "http://www.w3.org/2004/02/skos/core#prefLabel": ["Barbados"], "http://www.w3.org/ns/sosa/hasObservation": ["http://www.semwebtech.org/mondial/countries/BDS_obeth1", "http://www.semwebtech.org/mondial/countries/BDS_obeth2", "http://www.semwebtech.org/mondial/countries/BDS_obeth3", "http://www.semwebtech.org/mondial/countries/BDS_obeth4", "http://www.semwebtech.org/mondial/countries/BDS_obpop", "http://www.semwebtech.org/mondial/countries/BDS_obpopg", "http://www.semwebtech.org/mondial/countries/BDS_obpophistcoll", "http://www.semwebtech.org/mondial/countries/BDS_obrel1", "http://www.semwebtech.org/mondial/countries/BDS_obrel2", "http://www.semwebtech.org/mondial/countries/BDS_obrel3", "http://www.semwebtech.org/mondial/countries/BDS_obrel4", "http://www.semwebtech.org/mondial/countries/BDS_obrel5", "http://www.semwebtech.org/mondial/countries/BDS_obrel6"]}, "geometry": {"type": "Polygon", "coordinates": [[[-59.42691, 13.160386], [-59.430043, 13.125922], [-59.455719, 13.100043], [-59.475779, 13.086493], [-59.487538, 13.078559], [-59.50886, 13.057318], [-59.516713, 13.056383], [-59.523101, 13.056464], [-59.529286, 13.055406], [-59.536122, 13.051174], [-59.545969, 13.067694], [-59.564443, 13.07803], [-59.586903, 13.083197], [-59.60025, 13.084133], [-59.608144, 13.084662], [-59.621571, 13.09398], [-59.633127, 13.115912], [-59.646067, 13.160386], [-59.654205, 13.295111], [-59.652211, 13.310614], [-59.645131, 13.323717], [-59.63093, 13.337958], [-59.612864, 13.34455], [-59.594472, 13.334784], [-59.580719, 13.314521], [-59.575917, 13.304389], [-59.568959, 13.289659], [-59.549794, 13.249172], [-59.53661, 13.231391], [-59.518056, 13.217515], [-59.491811, 13.197943], [-59.476674, 13.189399], [-59.457102, 13.183173], [-59.438629, 13.174872], [-59.42691, 13.160386]]]}}], "numberMatched": 1, "numberReturned": 1, "bbox": [-59.654205, 13.051174, -59.42691, 13.34455], "crs": "http://www.opengis.net/def/crs/EPSG/0/4326"}