{"type": "FeatureCollection", "id": "http://www.lexvo.org/page/iso639-1/wl", "name": "wl", "features": [{"type": "Feature", "id": "http://www.semwebtech.org/mondial/countries/WL", "name": "", "dateprops": ["http://www.semwebtech.org/mondial/10/meta#independenceDate", "http://www.semwebtech.org/mondial/10/meta#independenceDate"], "properties": {"http://rdfs.org/ns/void#inDataset": ["http://www.semwebtech.org/mondial/md_dataset"], "http://www.opengis.net/ont/geosparql#hasGeometry": ["http://www.semwebtech.org/mondial/countries/WL_geom"], "http://www.opengis.net/ont/geosparql#hasMetricArea": ["620"], "http://www.semwebtech.org/mondial/10/meta#capital": ["http://www.semwebtech.org/mondial/countries/WL/cities/Castries"], "http://www.semwebtech.org/mondial/10/meta#carCode": ["http://www.lexvo.org/page/iso639-1/wl"], "http://www.semwebtech.org/mondial/10/meta#gdpAgri": ["3.1"], "http://www.semwebtech.org/mondial/10/meta#gdpInd": ["17.4"], "http://www.semwebtech.org/mondial/10/meta#gdpServ": ["79.5"], "http://www.semwebtech.org/mondial/10/meta#gdpTotal": ["1377"], "http://www.semwebtech.org/mondial/10/meta#government": ["parliamentary democracy and a Commonwealth realm"], "http://www.semwebtech.org/mondial/10/meta#hasCity": ["http://www.semwebtech.org/mondial/countries/WL/cities/Castries"], "http://www.semwebtech.org/mondial/10/meta#independenceDate": ["1979-02-22"], "http://www.semwebtech.org/mondial/10/meta#infantMortality": ["11.75"], "http://www.semwebtech.org/mondial/10/meta#unemployment": ["20"], "http://www.semwebtech.org/mondial/10/meta#wasDependentOf": ["http://www.semwebtech.org/mondial/countries/GB"], "http://www.w3.org/1999/02/22-rdf-syntax-ns#type": ["http://www.semwebtech.org/mondial/10/meta#Country"], "http://www.w3.org/2000/01/rdf-schema#label": ["Saint Lucia"], "http://www.w3.org/2004/02/skos/core#prefLabel": ["Saint Lucia"], "http://www.w3.org/ns/sosa/hasObservation": ["http://www.semwebtech.org/mondial/countries/WL_obeth1", "http://www.semwebtech.org/mondial/countries/WL_obeth2", "http://www.semwebtech.org/mondial/countries/WL_obeth3", "http://www.semwebtech.org/mondial/countries/WL_obeth4", "http://www.semwebtech.org/mondial/countries/WL_obpop", "http://www.semwebtech.org/mondial/countries/WL_obpophist0", "http://www.semwebtech.org/mondial/countries/WL_obpophist1", "http://www.semwebtech.org/mondial/countries/WL_obpophist2", "http://www.semwebtech.org/mondial/countries/WL_obpophist3", "http://www.semwebtech.org/mondial/countries/WL_obpophist4", "http://www.semwebtech.org/mondial/countries/WL_obpophist5", "http://www.semwebtech.org/mondial/countries/WL_obpophist6", "http://www.semwebtech.org/mondial/countries/WL_obrel1", "http://www.semwebtech.org/mondial/countries/WL_obrel2", "http://www.semwebtech.org/mondial/countries/WL_obrel3", "http://www.semwebtech.org/mondial/countries/WL_obrel4", "http://www.semwebtech.org/mondial/countries/WL_obrel5"]}, "geometry": {"type": "Polygon", "coordinates": [[[-60.88679, 14.010077], [-60.882965, 13.980618], [-60.883046, 13.954413], [-60.89509, 13.877346], [-60.892201, 13.833197], [-60.904612, 13.784247], [-60.907297, 13.77733], [-60.910308, 13.776109], [-60.922841, 13.772691], [-60.927113, 13.769924], [-60.931752, 13.760321], [-60.940785, 13.722113], [-60.947011, 13.716295], [-60.950103, 13.714667], [-60.955068, 13.714667], [-60.973378, 13.739], [-61.048166, 13.76732], [-61.064931, 13.786933], [-61.068105, 13.792182], [-61.074208, 13.798733], [-61.078114, 13.806301], [-61.071156, 13.821967], [-61.070058, 13.832099], [-61.071156, 13.851793], [-61.072743, 13.858222], [-61.075592, 13.863267], [-61.078114, 13.869615], [-61.078521, 13.879788], [-61.075917, 13.890367], [-61.066884, 13.909003], [-61.064931, 13.917304], [-61.059478, 13.93122], [-61.035553, 13.964911], [-61.026601, 13.987372], [-61.002268, 14.023139], [-60.99706, 14.027167], [-60.987294, 14.032538], [-60.98233, 14.03734], [-60.97997, 14.043524], [-60.976064, 14.061184], [-60.972076, 14.068101], [-60.947621, 14.102281], [-60.933461, 14.111884], [-60.914133, 14.105699], [-60.918609, 14.088446], [-60.911936, 14.079495], [-60.901031, 14.073391], [-60.892974, 14.064683], [-60.890207, 14.052232], [-60.88679, 14.010077]]]}}], "numberMatched": 1, "numberReturned": 1, "bbox": [-61.078521, 13.714667, -60.882965, 14.111884], "crs": "http://www.opengis.net/def/crs/EPSG/0/4326"}