{"type": "FeatureCollection", "id": "http://www.lexvo.org/page/iso639-1/mnts", "name": "mnts", "features": [{"type": "Feature", "id": "http://www.semwebtech.org/mondial/countries/MNTS", "name": "", "dateprops": [], "properties": {"http://rdfs.org/ns/void#inDataset": ["http://www.semwebtech.org/mondial/md_dataset"], "http://www.opengis.net/ont/geosparql#hasGeometry": ["http://www.semwebtech.org/mondial/countries/MNTS_geom"], "http://www.opengis.net/ont/geosparql#hasMetricArea": ["102"], "http://www.semwebtech.org/mondial/10/meta#capital": ["http://www.semwebtech.org/mondial/countries/MNTS/cities/Plymouth"], "http://www.semwebtech.org/mondial/10/meta#carCode": ["http://www.lexvo.org/page/iso639-1/mnts"], "http://www.semwebtech.org/mondial/10/meta#dependentOf": ["http://www.semwebtech.org/mondial/countries/GB"], "http://www.semwebtech.org/mondial/10/meta#gdpAgri": ["1.6"], "http://www.semwebtech.org/mondial/10/meta#gdpInd": ["23.2"], "http://www.semwebtech.org/mondial/10/meta#gdpServ": ["75.1"], "http://www.semwebtech.org/mondial/10/meta#gdpTotal": ["29"], "http://www.semwebtech.org/mondial/10/meta#government": ["http://www.wikidata.org/entity/Q46395"], "http://www.semwebtech.org/mondial/10/meta#hasCity": ["http://www.semwebtech.org/mondial/countries/MNTS/cities/Brades", "http://www.semwebtech.org/mondial/countries/MNTS/cities/Plymouth"], "http://www.semwebtech.org/mondial/10/meta#infantMortality": ["13.66"], "http://www.semwebtech.org/mondial/10/meta#unemployment": ["6"], "http://www.w3.org/1999/02/22-rdf-syntax-ns#type": ["http://www.semwebtech.org/mondial/10/meta#Country"], "http://www.w3.org/2000/01/rdf-schema#label": ["Montserrat"], "http://www.w3.org/ns/sosa/hasObservation": ["http://www.semwebtech.org/mondial/countries/MNTS_obeth1", "http://www.semwebtech.org/mondial/countries/MNTS_obeth2", "http://www.semwebtech.org/mondial/countries/MNTS_obeth3", "http://www.semwebtech.org/mondial/countries/MNTS_obeth4", "http://www.semwebtech.org/mondial/countries/MNTS_obpop", "http://www.semwebtech.org/mondial/countries/MNTS_obpophist0", "http://www.semwebtech.org/mondial/countries/MNTS_obpophist1", "http://www.semwebtech.org/mondial/countries/MNTS_obpophist2", "http://www.semwebtech.org/mondial/countries/MNTS_obpophist3", "http://www.semwebtech.org/mondial/countries/MNTS_obpophist4", "http://www.semwebtech.org/mondial/countries/MNTS_obpophist5", "http://www.semwebtech.org/mondial/countries/MNTS_obpophist6", "http://www.semwebtech.org/mondial/countries/MNTS_obpophist7", "http://www.semwebtech.org/mondial/countries/MNTS_obrel1", "http://www.semwebtech.org/mondial/countries/MNTS_obrel2", "http://www.semwebtech.org/mondial/countries/MNTS_obrel3", "http://www.semwebtech.org/mondial/countries/MNTS_obrel4"]}, "geometry": {"type": "Polygon", "coordinates": [[[-62.147369, 16.744289], [-62.147694, 16.737047], [-62.151763, 16.724514], [-62.150787, 16.720364], [-62.147572, 16.715888], [-62.14391, 16.70897], [-62.141184, 16.70185], [-62.140533, 16.696479], [-62.144032, 16.688218], [-62.14977, 16.681789], [-62.157826, 16.677314], [-62.167877, 16.67536], [-62.218861, 16.688707], [-62.230133, 16.727607], [-62.218861, 16.776313], [-62.202016, 16.819322], [-62.189443, 16.814439], [-62.182932, 16.81273], [-62.174672, 16.813137], [-62.179311, 16.794501], [-62.170033, 16.777004], [-62.156321, 16.760321], [-62.147369, 16.744289]]]}}], "numberMatched": 1, "numberReturned": 1, "bbox": [-62.230133, 16.67536, -62.140533, 16.819322], "crs": "http://www.opengis.net/def/crs/EPSG/0/4326"}