{"type": "FeatureCollection", "id": "http://www.lexvo.org/page/iso639-1/and", "name": "and", "features": [{"type": "Feature", "id": "http://www.semwebtech.org/mondial/countries/AND", "name": "", "dateprops": ["http://www.semwebtech.org/mondial/10/meta#independenceDate", "http://www.semwebtech.org/mondial/10/meta#independenceDate"], "properties": {"http://rdfs.org/ns/void#inDataset": ["http://www.semwebtech.org/mondial/md_dataset"], "http://www.opengis.net/ont/geosparql#hasGeometry": ["http://www.semwebtech.org/mondial/countries/AND_geom"], "http://www.opengis.net/ont/geosparql#hasMetricArea": ["450"], "http://www.semwebtech.org/mondial/10/meta#capital": ["http://www.semwebtech.org/mondial/countries/AND/cities/Andorra+la+Vella"], "http://www.semwebtech.org/mondial/10/meta#carCode": ["http://www.lexvo.org/page/iso639-1/and"], "http://www.semwebtech.org/mondial/10/meta#gdpAgri": ["14"], "http://www.semwebtech.org/mondial/10/meta#gdpInd": ["79"], "http://www.semwebtech.org/mondial/10/meta#gdpServ": ["6"], "http://www.semwebtech.org/mondial/10/meta#gdpTotal": ["4800"], "http://www.semwebtech.org/mondial/10/meta#government": ["parliamentary democracy that retains as its chiefs of state a co-principality"], "http://www.semwebtech.org/mondial/10/meta#hasCity": ["http://www.semwebtech.org/mondial/countries/AND/cities/Andorra+la+Vella"], "http://www.semwebtech.org/mondial/10/meta#independenceDate": ["1278-09-08"], "http://www.semwebtech.org/mondial/10/meta#infantMortality": ["3.69"], "http://www.semwebtech.org/mondial/10/meta#neighbor": ["http://www.semwebtech.org/mondial/countries/E", "http://www.semwebtech.org/mondial/countries/F"], "http://www.semwebtech.org/mondial/10/meta#unemployment": ["4"], "http://www.w3.org/1999/02/22-rdf-syntax-ns#type": ["http://www.semwebtech.org/mondial/10/meta#Country"], "http://www.w3.org/2000/01/rdf-schema#label": ["Andorra"], "http://www.w3.org/2004/02/skos/core#prefLabel": ["Principat d'Andorra"], "http://www.w3.org/ns/sosa/hasObservation": ["http://www.semwebtech.org/mondial/countries/AND_obeth1", "http://www.semwebtech.org/mondial/countries/AND_obeth2", "http://www.semwebtech.org/mondial/countries/AND_obeth3", "http://www.semwebtech.org/mondial/countries/AND_obeth4", "http://www.semwebtech.org/mondial/countries/AND_obeth5", "http://www.semwebtech.org/mondial/countries/AND_obeth6", "http://www.semwebtech.org/mondial/countries/AND_obpop", "http://www.semwebtech.org/mondial/countries/AND_obpopg", "http://www.semwebtech.org/mondial/countries/AND_obpophistcoll", "http://www.semwebtech.org/mondial/countries/AND_obrel1", "http://www.semwebtech.org/mondial/countries/AND_obrel2", "http://www.semwebtech.org/mondial/countries/AND_obrel3", "http://www.semwebtech.org/mondial/countries/AND_obrel4", "http://www.semwebtech.org/mondial/countries/AND_obrel5", "http://www.semwebtech.org/mondial/countries/AND_obrel6"]}, "geometry": {"type": "Polygon", "coordinates": [[[1.707006, 42.502781], [1.697498, 42.494462], [1.686336, 42.490612], [1.674244, 42.490508], [1.662358, 42.493712], [1.659774, 42.496813], [1.656984, 42.49764], [1.653986, 42.496529], [1.650369, 42.493402], [1.639517, 42.466427], [1.607478, 42.456428], [1.544432, 42.450356], [1.538851, 42.445653], [1.534511, 42.439917], [1.528206, 42.434233], [1.51663, 42.429504], [1.508466, 42.428677], [1.447901, 42.434646], [1.436429, 42.440951], [1.436429, 42.453482], [1.407593, 42.486762], [1.424543, 42.492472], [1.430227, 42.493557], [1.449968, 42.504073], [1.446557, 42.519886], [1.428987, 42.531462], [1.406456, 42.52924], [1.409764, 42.540609], [1.4263, 42.561796], [1.426403, 42.565646], [1.418032, 42.569832], [1.419272, 42.579263], [1.424853, 42.589365], [1.429297, 42.595386], [1.451415, 42.602052], [1.466814, 42.641455], [1.49844, 42.640241], [1.527793, 42.648535], [1.543089, 42.649362], [1.597349, 42.621921], [1.608304, 42.618123], [1.721993, 42.609855], [1.713311, 42.589546], [1.729434, 42.582001], [1.752688, 42.576679], [1.761107, 42.567646], [1.765091, 42.563372], [1.739976, 42.561641], [1.721683, 42.548515], [1.710624, 42.527741], [1.707006, 42.502781]]]}}], "numberMatched": 1, "numberReturned": 1, "bbox": [1.406456, 42.428677, 1.765091, 42.649362], "crs": "http://www.opengis.net/def/crs/EPSG/0/4326"}