{"type": "FeatureCollection", "id": "http://www.lexvo.org/page/iso639-1/wv", "name": "wv", "features": [{"type": "Feature", "id": "http://www.semwebtech.org/mondial/countries/WV", "name": "", "dateprops": ["http://www.semwebtech.org/mondial/10/meta#independenceDate", "http://www.semwebtech.org/mondial/10/meta#independenceDate"], "properties": {"http://rdfs.org/ns/void#inDataset": ["http://www.semwebtech.org/mondial/md_dataset"], "http://www.opengis.net/ont/geosparql#hasGeometry": ["http://www.semwebtech.org/mondial/countries/WV_geom"], "http://www.opengis.net/ont/geosparql#hasMetricArea": ["389"], "http://www.semwebtech.org/mondial/10/meta#capital": ["http://www.semwebtech.org/mondial/countries/WV/cities/Kingstown"], "http://www.semwebtech.org/mondial/10/meta#carCode": ["http://www.lexvo.org/page/iso639-1/wv"], "http://www.semwebtech.org/mondial/10/meta#gdpAgri": ["5.4"], "http://www.semwebtech.org/mondial/10/meta#gdpInd": ["20.3"], "http://www.semwebtech.org/mondial/10/meta#gdpServ": ["74.4"], "http://www.semwebtech.org/mondial/10/meta#gdpTotal": ["742"], "http://www.semwebtech.org/mondial/10/meta#government": ["parliamentary democracy and a Commonwealth realm"], "http://www.semwebtech.org/mondial/10/meta#hasCity": ["http://www.semwebtech.org/mondial/countries/WV/cities/Kingstown"], "http://www.semwebtech.org/mondial/10/meta#independenceDate": ["1979-10-27"], "http://www.semwebtech.org/mondial/10/meta#infantMortality": ["13.07"], "http://www.semwebtech.org/mondial/10/meta#unemployment": ["18.8"], "http://www.semwebtech.org/mondial/10/meta#wasDependentOf": ["http://www.semwebtech.org/mondial/countries/GB"], "http://www.w3.org/1999/02/22-rdf-syntax-ns#type": ["http://www.semwebtech.org/mondial/10/meta#Country"], "http://www.w3.org/2000/01/rdf-schema#label": ["Saint Vincent and the Grenadines"], "http://www.w3.org/2004/02/skos/core#prefLabel": ["Saint Vincent and the Grenadines"], "http://www.w3.org/ns/sosa/hasObservation": ["http://www.semwebtech.org/mondial/countries/WV_obeth1", "http://www.semwebtech.org/mondial/countries/WV_obeth2", "http://www.semwebtech.org/mondial/countries/WV_obeth3", "http://www.semwebtech.org/mondial/countries/WV_obeth4", "http://www.semwebtech.org/mondial/countries/WV_obeth5", "http://www.semwebtech.org/mondial/countries/WV_obpop", "http://www.semwebtech.org/mondial/countries/WV_obpophist0", "http://www.semwebtech.org/mondial/countries/WV_obpophist1", "http://www.semwebtech.org/mondial/countries/WV_obpophist2", "http://www.semwebtech.org/mondial/countries/WV_obpophist3", "http://www.semwebtech.org/mondial/countries/WV_obpophist4", "http://www.semwebtech.org/mondial/countries/WV_obpophist5", "http://www.semwebtech.org/mondial/countries/WV_obpophist6", "http://www.semwebtech.org/mondial/countries/WV_obrel1", "http://www.semwebtech.org/mondial/countries/WV_obrel2", "http://www.semwebtech.org/mondial/countries/WV_obrel3", "http://www.semwebtech.org/mondial/countries/WV_obrel4"]}, "geometry": {"type": "MultiPolygon", "coordinates": [[[[-61.194, 13.036851], [-61.208323, 13.023261], [-61.22643, 12.99315], [-61.242421, 12.982245], [-61.234975, 12.982245], [-61.242421, 12.974799], [-61.247548, 12.982123], [-61.255483, 12.986721], [-61.265614, 12.988715], [-61.277211, 12.988471], [-61.277211, 12.995917], [-61.262318, 12.99136], [-61.239613, 12.995795], [-61.239573, 13.003852], [-61.246205, 13.011217], [-61.249257, 13.016343], [-61.240956, 13.024237], [-61.213124, 13.041815], [-61.201487, 13.051174], [-61.200063, 13.047309], [-61.199615, 13.043687], [-61.198232, 13.040229], [-61.194, 13.036851]]], [[[-61.167348, 13.146064], [-61.185211, 13.132514], [-61.210194, 13.144192], [-61.271352, 13.18651], [-61.279368, 13.215888], [-61.276682, 13.249905], [-61.262929, 13.276435], [-61.265533, 13.280219], [-61.270375, 13.290107], [-61.243398, 13.294379], [-61.231842, 13.316962], [-61.224965, 13.345771], [-61.212026, 13.368883], [-61.199127, 13.377021], [-61.187123, 13.380439], [-61.176381, 13.380764], [-61.151235, 13.376776], [-61.144032, 13.374091], [-61.140045, 13.367377], [-61.133778, 13.352769], [-61.123931, 13.308254], [-61.12442, 13.246975], [-61.13801, 13.186916], [-61.167348, 13.146064]]], [[[-61.441396, 12.607896], [-61.429351, 12.600491], [-61.426625, 12.591864], [-61.432729, 12.587836], [-61.443227, 12.58515], [-61.455922, 12.586086], [-61.459828, 12.591457], [-61.455678, 12.596584], [-61.454661, 12.600775], [-61.456776, 12.604438], [-61.455556, 12.607082], [-61.448313, 12.609931], [-61.441396, 12.607896]]], [[[-61.319407, 12.733791], [-61.316314, 12.730048], [-61.314361, 12.720893], [-61.319692, 12.713935], [-61.32551, 12.708197], [-61.328359, 12.699449], [-61.333892, 12.69359], [-61.344106, 12.693061], [-61.353098, 12.696479], [-61.350657, 12.69953], [-61.339263, 12.701972], [-61.333974, 12.708564], [-61.335846, 12.717434], [-61.335357, 12.7272], [-61.326324, 12.73314], [-61.319407, 12.733791]]], [[[-61.191762, 12.868232], [-61.183176, 12.88349], [-61.174957, 12.881781], [-61.183583, 12.862006], [-61.187611, 12.856391], [-61.190826, 12.855862], [-61.191762, 12.868232]]]]}}], "numberMatched": 1, "numberReturned": 1, "bbox": [-61.459828, 12.58515, -61.123931, 13.380764], "crs": "http://www.opengis.net/def/crs/EPSG/0/4326"}