{"type": "FeatureCollection", "id": "http://www.lexvo.org/page/iso639-1/gbz", "name": "gbz", "features": [{"type": "Feature", "id": "http://www.semwebtech.org/mondial/countries/GBZ", "name": "", "dateprops": [], "properties": {"http://rdfs.org/ns/void#inDataset": ["http://www.semwebtech.org/mondial/md_dataset"], "http://www.opengis.net/ont/geosparql#hasGeometry": ["http://www.semwebtech.org/mondial/countries/GBZ_geom"], "http://www.opengis.net/ont/geosparql#hasMetricArea": ["6.5"], "http://www.semwebtech.org/mondial/10/meta#capital": ["http://www.semwebtech.org/mondial/countries/GBZ/cities/Gibraltar"], "http://www.semwebtech.org/mondial/10/meta#carCode": ["http://www.lexvo.org/page/iso639-1/gbz"], "http://www.semwebtech.org/mondial/10/meta#dependentOf": ["http://www.semwebtech.org/mondial/countries/GB"], "http://www.semwebtech.org/mondial/10/meta#gdpAgri": ["0"], "http://www.semwebtech.org/mondial/10/meta#gdpInd": ["0"], "http://www.semwebtech.org/mondial/10/meta#gdpServ": ["100"], "http://www.semwebtech.org/mondial/10/meta#gdpTotal": ["1106"], "http://www.semwebtech.org/mondial/10/meta#government": ["dependent territory of the UK"], "http://www.semwebtech.org/mondial/10/meta#hasCity": ["http://www.semwebtech.org/mondial/countries/GBZ/cities/Gibraltar"], "http://www.semwebtech.org/mondial/10/meta#infantMortality": ["6.29"], "http://www.semwebtech.org/mondial/10/meta#neighbor": ["http://www.semwebtech.org/mondial/countries/E"], "http://www.semwebtech.org/mondial/10/meta#unemployment": ["3"], "http://www.w3.org/1999/02/22-rdf-syntax-ns#type": ["http://www.semwebtech.org/mondial/10/meta#Country"], "http://www.w3.org/2000/01/rdf-schema#label": ["Gibraltar"], "http://www.w3.org/ns/sosa/hasObservation": ["http://www.semwebtech.org/mondial/countries/GBZ_obeth1", "http://www.semwebtech.org/mondial/countries/GBZ_obeth2", "http://www.semwebtech.org/mondial/countries/GBZ_obeth3", "http://www.semwebtech.org/mondial/countries/GBZ_obeth4", "http://www.semwebtech.org/mondial/countries/GBZ_obeth5", "http://www.semwebtech.org/mondial/countries/GBZ_obeth6", "http://www.semwebtech.org/mondial/countries/GBZ_obpop", "http://www.semwebtech.org/mondial/countries/GBZ_obpopg", "http://www.semwebtech.org/mondial/countries/GBZ_obpophistcoll", "http://www.semwebtech.org/mondial/countries/GBZ_obrel1", "http://www.semwebtech.org/mondial/countries/GBZ_obrel2", "http://www.semwebtech.org/mondial/countries/GBZ_obrel3", "http://www.semwebtech.org/mondial/countries/GBZ_obrel4", "http://www.semwebtech.org/mondial/countries/GBZ_obrel5"]}, "geometry": {"type": "Polygon", "coordinates": [[[-5.358387, 36.141109], [-5.338773, 36.14112], [-5.339915, 36.129828], [-5.33906, 36.123847], [-5.34203, 36.1105], [-5.35025, 36.119289], [-5.358387, 36.141109]]]}}], "numberMatched": 1, "numberReturned": 1, "bbox": [-5.358387, 36.1105, -5.338773, 36.14112], "crs": "http://www.opengis.net/def/crs/EPSG/0/4326"}