{"type": "FeatureCollection", "id": "http://www.lexvo.org/page/iso639-1/m", "name": "m", "features": [{"type": "Feature", "id": "http://www.semwebtech.org/mondial/countries/M", "name": "", "dateprops": ["http://www.semwebtech.org/mondial/10/meta#independenceDate", "http://www.semwebtech.org/mondial/10/meta#independenceDate"], "properties": {"http://rdfs.org/ns/void#inDataset": ["http://www.semwebtech.org/mondial/md_dataset"], "http://www.opengis.net/ont/geosparql#hasGeometry": ["http://www.semwebtech.org/mondial/countries/M_geom"], "http://www.opengis.net/ont/geosparql#hasMetricArea": ["316"], "http://www.semwebtech.org/mondial/10/meta#capital": ["http://www.semwebtech.org/mondial/countries/M/cities/Valletta"], "http://www.semwebtech.org/mondial/10/meta#carCode": ["http://www.lexvo.org/page/iso639-1/m"], "http://www.semwebtech.org/mondial/10/meta#gdpAgri": ["1.4"], "http://www.semwebtech.org/mondial/10/meta#gdpInd": ["25.3"], "http://www.semwebtech.org/mondial/10/meta#gdpServ": ["73.3"], "http://www.semwebtech.org/mondial/10/meta#gdpTotal": ["9541"], "http://www.semwebtech.org/mondial/10/meta#government": ["http://www.wikidata.org/entry/Q7270"], "http://www.semwebtech.org/mondial/10/meta#hasCity": ["http://www.semwebtech.org/mondial/countries/M/cities/Valletta", "http://www.semwebtech.org/mondial/countries/M/cities/Victoria"], "http://www.semwebtech.org/mondial/10/meta#independenceDate": ["1964-09-21"], "http://www.semwebtech.org/mondial/10/meta#infantMortality": ["3.59"], "http://www.semwebtech.org/mondial/10/meta#unemployment": ["6.4"], "http://www.semwebtech.org/mondial/10/meta#wasDependentOf": ["http://www.semwebtech.org/mondial/countries/GB"], "http://www.w3.org/1999/02/22-rdf-syntax-ns#type": ["http://www.semwebtech.org/mondial/10/meta#Country"], "http://www.w3.org/2000/01/rdf-schema#label": ["Malta"], "http://www.w3.org/2004/02/skos/core#prefLabel": ["the Republic of Malta "], "http://www.w3.org/ns/sosa/hasObservation": ["http://www.semwebtech.org/mondial/countries/M_obeth1", "http://www.semwebtech.org/mondial/countries/M_obeth2", "http://www.semwebtech.org/mondial/countries/M_obeth3", "http://www.semwebtech.org/mondial/countries/M_obeth4", "http://www.semwebtech.org/mondial/countries/M_obpop", "http://www.semwebtech.org/mondial/countries/M_obpopg", "http://www.semwebtech.org/mondial/countries/M_obpophistcoll", "http://www.semwebtech.org/mondial/countries/M_obrel1", "http://www.semwebtech.org/mondial/countries/M_obrel2", "http://www.semwebtech.org/mondial/countries/M_obrel3", "http://www.semwebtech.org/mondial/countries/M_obrel4"]}, "geometry": {"type": "MultiPolygon", "coordinates": [[[[14.548025, 35.890041], [14.563162, 35.870022], [14.567149, 35.845608], [14.561778, 35.82982], [14.548025, 35.836005], [14.532481, 35.821967], [14.527517, 35.813544], [14.527517, 35.801215], [14.511485, 35.806464], [14.507091, 35.808661], [14.472667, 35.811428], [14.42449, 35.823676], [14.381521, 35.842963], [14.363048, 35.866685], [14.359874, 35.869696], [14.345714, 35.875922], [14.342621, 35.880683], [14.342621, 35.911689], [14.338227, 35.946967], [14.33253, 35.962836], [14.322032, 35.973131], [14.334727, 35.982367], [14.347504, 35.988715], [14.361501, 35.992418], [14.377289, 35.993638], [14.377289, 35.986233], [14.368175, 35.984849], [14.362315, 35.982408], [14.349376, 35.973131], [14.428477, 35.965725], [14.445079, 35.960354], [14.478689, 35.936957], [14.507823, 35.928534], [14.512869, 35.920803], [14.514008, 35.910834], [14.513927, 35.900824], [14.519298, 35.89997], [14.548025, 35.890041]]], [[[14.256602, 36.075588], [14.282563, 36.067857], [14.314789, 36.051093], [14.334239, 36.034369], [14.322032, 36.027167], [14.304454, 36.026597], [14.277599, 36.016669], [14.26002, 36.013495], [14.241466, 36.014635], [14.220876, 36.019192], [14.201182, 36.026068], [14.184906, 36.034613], [14.187999, 36.045396], [14.184337, 36.056301], [14.183604, 36.064765], [14.195486, 36.068101], [14.256602, 36.075588]]]]}}], "numberMatched": 1, "numberReturned": 1, "bbox": [14.183604, 35.801215, 14.567149, 36.075588], "crs": "http://www.opengis.net/def/crs/EPSG/0/4326"}