{"type": "FeatureCollection", "id": "http://www.lexvo.org/page/iso639-1/gbm", "name": "gbm", "features": [{"type": "Feature", "id": "http://www.semwebtech.org/mondial/countries/GBM", "name": "", "dateprops": [], "properties": {"http://rdfs.org/ns/void#inDataset": ["http://www.semwebtech.org/mondial/md_dataset"], "http://www.opengis.net/ont/geosparql#hasGeometry": ["http://www.semwebtech.org/mondial/countries/GBM_geom"], "http://www.opengis.net/ont/geosparql#hasMetricArea": ["588"], "http://www.semwebtech.org/mondial/10/meta#capital": ["http://www.semwebtech.org/mondial/countries/GBM/cities/Douglas"], "http://www.semwebtech.org/mondial/10/meta#carCode": ["http://www.lexvo.org/page/iso639-1/gbm"], "http://www.semwebtech.org/mondial/10/meta#dependentOf": ["http://www.semwebtech.org/mondial/countries/GB"], "http://www.semwebtech.org/mondial/10/meta#gdpAgri": ["1"], "http://www.semwebtech.org/mondial/10/meta#gdpInd": ["11"], "http://www.semwebtech.org/mondial/10/meta#gdpServ": ["88"], "http://www.semwebtech.org/mondial/10/meta#gdpTotal": ["4076"], "http://www.semwebtech.org/mondial/10/meta#government": ["http://www.wikidata.org/entity/Q3043547"], "http://www.semwebtech.org/mondial/10/meta#hasCity": ["http://www.semwebtech.org/mondial/countries/GBM/cities/Douglas"], "http://www.semwebtech.org/mondial/10/meta#infantMortality": ["4.17"], "http://www.semwebtech.org/mondial/10/meta#unemployment": ["2"], "http://www.w3.org/1999/02/22-rdf-syntax-ns#type": ["http://www.semwebtech.org/mondial/10/meta#Country"], "http://www.w3.org/2000/01/rdf-schema#label": ["Isle of Man"], "http://www.w3.org/2004/02/skos/core#prefLabel": ["the Isle of Man"], "http://www.w3.org/ns/sosa/hasObservation": ["http://www.semwebtech.org/mondial/countries/GBM_obeth1", "http://www.semwebtech.org/mondial/countries/GBM_obeth2", "http://www.semwebtech.org/mondial/countries/GBM_obeth3", "http://www.semwebtech.org/mondial/countries/GBM_obeth4", "http://www.semwebtech.org/mondial/countries/GBM_obeth5", "http://www.semwebtech.org/mondial/countries/GBM_obpop", "http://www.semwebtech.org/mondial/countries/GBM_obpophist0", "http://www.semwebtech.org/mondial/countries/GBM_obpophist1", "http://www.semwebtech.org/mondial/countries/GBM_obpophist10", "http://www.semwebtech.org/mondial/countries/GBM_obpophist11", "http://www.semwebtech.org/mondial/countries/GBM_obpophist12", "http://www.semwebtech.org/mondial/countries/GBM_obpophist13", "http://www.semwebtech.org/mondial/countries/GBM_obpophist14", "http://www.semwebtech.org/mondial/countries/GBM_obpophist2", "http://www.semwebtech.org/mondial/countries/GBM_obpophist3", "http://www.semwebtech.org/mondial/countries/GBM_obpophist4", "http://www.semwebtech.org/mondial/countries/GBM_obpophist5", "http://www.semwebtech.org/mondial/countries/GBM_obpophist6", "http://www.semwebtech.org/mondial/countries/GBM_obpophist7", "http://www.semwebtech.org/mondial/countries/GBM_obpophist8", "http://www.semwebtech.org/mondial/countries/GBM_obpophist9", "http://www.semwebtech.org/mondial/countries/GBM_obrel1", "http://www.semwebtech.org/mondial/countries/GBM_obrel2"], "http://www.semwebtech.org/mondial/10/meta#independenceDate": ""}, "geometry": {"type": "Polygon", "coordinates": [[[-4.612131, 54.056952], [-4.620758, 54.069648], [-4.631256, 54.070624], [-4.643219, 54.066596], [-4.656402, 54.063788], [-4.67101, 54.067043], [-4.689687, 54.081529], [-4.704498, 54.084866], [-4.725982, 54.079006], [-4.745595, 54.067369], [-4.766225, 54.059231], [-4.790151, 54.063788], [-4.790151, 54.071234], [-4.78482, 54.073065], [-4.781321, 54.074774], [-4.777089, 54.076239], [-4.769683, 54.07746], [-4.770863, 54.096829], [-4.737172, 54.124905], [-4.728139, 54.142564], [-4.727651, 54.172593], [-4.723785, 54.185452], [-4.714467, 54.200344], [-4.71109, 54.209906], [-4.71227, 54.21662], [-4.710276, 54.220649], [-4.68814, 54.223782], [-4.663971, 54.233547], [-4.643056, 54.249416], [-4.612457, 54.265448], [-4.598378, 54.276597], [-4.554596, 54.339179], [-4.530995, 54.366116], [-4.495351, 54.385891], [-4.442006, 54.404364], [-4.404449, 54.409654], [-4.385732, 54.415717], [-4.367787, 54.419013], [-4.351308, 54.413804], [-4.357086, 54.3994], [-4.377553, 54.361884], [-4.3756, 54.348334], [-4.370229, 54.340888], [-4.363759, 54.324286], [-4.358225, 54.317613], [-4.350494, 54.314765], [-4.332183, 54.313422], [-4.324696, 54.310207], [-4.319407, 54.304592], [-4.313222, 54.2956], [-4.31192, 54.287177], [-4.320953, 54.283515], [-4.326731, 54.280341], [-4.34081, 54.263007], [-4.348256, 54.259508], [-4.35436, 54.251532], [-4.359771, 54.242255], [-4.365631, 54.235053], [-4.371816, 54.231269], [-4.399159, 54.222073], [-4.390777, 54.194729], [-4.412587, 54.18008], [-4.446889, 54.169135], [-4.475494, 54.153144], [-4.474599, 54.140815], [-4.529286, 54.119086], [-4.543772, 54.108466], [-4.549794, 54.100653], [-4.563832, 54.096829], [-4.579579, 54.094428], [-4.590932, 54.091051], [-4.598948, 54.083889], [-4.612131, 54.056952]]]}}], "numberMatched": 1, "numberReturned": 1, "bbox": [-4.790151, 54.056952, -4.31192, 54.419013], "crs": "http://www.opengis.net/def/crs/EPSG/0/4326"}