{"type": "FeatureCollection", "id": "http://www.lexvo.org/page/iso639-1/cym", "name": "cym", "features": [{"type": "Feature", "id": "http://www.semwebtech.org/mondial/countries/CYM", "name": "", "dateprops": [], "properties": {"http://rdfs.org/ns/void#inDataset": ["http://www.semwebtech.org/mondial/md_dataset"], "http://www.opengis.net/ont/geosparql#hasGeometry": ["http://www.semwebtech.org/mondial/countries/CYM_geom"], "http://www.opengis.net/ont/geosparql#hasMetricArea": ["262"], "http://www.semwebtech.org/mondial/10/meta#capital": ["http://www.semwebtech.org/mondial/countries/CYM/cities/George+Town"], "http://www.semwebtech.org/mondial/10/meta#carCode": ["http://www.lexvo.org/page/iso639-1/cym"], "http://www.semwebtech.org/mondial/10/meta#dependentOf": ["http://www.semwebtech.org/mondial/countries/GB"], "http://www.semwebtech.org/mondial/10/meta#gdpAgri": ["0.3"], "http://www.semwebtech.org/mondial/10/meta#gdpInd": ["27.4"], "http://www.semwebtech.org/mondial/10/meta#gdpServ": ["72.3"], "http://www.semwebtech.org/mondial/10/meta#gdpTotal": ["2250"], "http://www.semwebtech.org/mondial/10/meta#government": ["http://www.wikidata.org/entity/Q3043547"], "http://www.semwebtech.org/mondial/10/meta#hasCity": ["http://www.semwebtech.org/mondial/countries/CYM/cities/George+Town"], "http://www.semwebtech.org/mondial/10/meta#infantMortality": ["6.21"], "http://www.semwebtech.org/mondial/10/meta#unemployment": ["4"], "http://www.w3.org/1999/02/22-rdf-syntax-ns#type": ["http://www.semwebtech.org/mondial/10/meta#Country"], "http://www.w3.org/2000/01/rdf-schema#label": ["Cayman Islands"], "http://www.w3.org/ns/sosa/hasObservation": ["http://www.semwebtech.org/mondial/countries/CYM_obeth1", "http://www.semwebtech.org/mondial/countries/CYM_obeth2", "http://www.semwebtech.org/mondial/countries/CYM_obeth3", "http://www.semwebtech.org/mondial/countries/CYM_obpop", "http://www.semwebtech.org/mondial/countries/CYM_obpophist0", "http://www.semwebtech.org/mondial/countries/CYM_obpophist1", "http://www.semwebtech.org/mondial/countries/CYM_obpophist10", "http://www.semwebtech.org/mondial/countries/CYM_obpophist11", "http://www.semwebtech.org/mondial/countries/CYM_obpophist12", "http://www.semwebtech.org/mondial/countries/CYM_obpophist2", "http://www.semwebtech.org/mondial/countries/CYM_obpophist3", "http://www.semwebtech.org/mondial/countries/CYM_obpophist4", "http://www.semwebtech.org/mondial/countries/CYM_obpophist5", "http://www.semwebtech.org/mondial/countries/CYM_obpophist6", "http://www.semwebtech.org/mondial/countries/CYM_obpophist7", "http://www.semwebtech.org/mondial/countries/CYM_obpophist8", "http://www.semwebtech.org/mondial/countries/CYM_obpophist9", "http://www.semwebtech.org/mondial/countries/CYM_obrel1", "http://www.semwebtech.org/mondial/countries/CYM_obrel2", "http://www.semwebtech.org/mondial/countries/CYM_obrel3", "http://www.semwebtech.org/mondial/countries/CYM_obrel4", "http://www.semwebtech.org/mondial/countries/CYM_obrel5"], "http://www.semwebtech.org/mondial/10/meta#independenceDate": ""}, "geometry": {"type": "MultiPolygon", "coordinates": [[[[-81.136098, 19.354885], [-81.117543, 19.352769], [-81.099517, 19.347317], [-81.089508, 19.335395], [-81.086586, 19.309927], [-81.106677, 19.295317], [-81.1351, 19.290742], [-81.169504, 19.299563], [-81.193192, 19.296114], [-81.214509, 19.292672], [-81.233458, 19.289234], [-81.248821, 19.279097], [-81.266469, 19.266059], [-81.276357, 19.264838], [-81.341272, 19.27306], [-81.357882, 19.274094], [-81.375722, 19.272284], [-81.387486, 19.263864], [-81.397939, 19.274156], [-81.395925, 19.289562], [-81.3924, 19.296296], [-81.388899, 19.307506], [-81.385426, 19.324311], [-81.385503, 19.338858], [-81.390326, 19.35226], [-81.405818, 19.36337], [-81.416542, 19.370028], [-81.414238, 19.382349], [-81.408346, 19.390212], [-81.394124, 19.394761], [-81.375722, 19.388983], [-81.378585, 19.375817], [-81.368999, 19.359083], [-81.36059, 19.340104], [-81.364045, 19.319946], [-81.349718, 19.302114], [-81.322438, 19.302251], [-81.303498, 19.309055], [-81.301259, 19.320624], [-81.293813, 19.334377], [-81.288075, 19.331366], [-81.273305, 19.327582], [-81.273427, 19.332099], [-81.274892, 19.335273], [-81.27953, 19.341783], [-81.273305, 19.334377], [-81.275217, 19.338568], [-81.277699, 19.341376], [-81.277984, 19.344062], [-81.273305, 19.348049], [-81.277903, 19.351874], [-81.280751, 19.356269], [-81.286285, 19.368476], [-81.268137, 19.366278], [-81.231557, 19.351549], [-81.211822, 19.348049], [-81.157786, 19.355048], [-81.136098, 19.354885]]], [[[-80.03783, 19.704035], [-80.008736, 19.703951], [-79.981028, 19.714301], [-79.964263, 19.704901], [-79.96817, 19.703192], [-79.977935, 19.697455], [-80.003918, 19.69027], [-80.077968, 19.65402], [-80.113155, 19.65866], [-80.098553, 19.676857], [-80.081543, 19.685929], [-80.062088, 19.700682], [-80.03783, 19.704035]]], [[[-79.871889, 19.704636], [-79.802837, 19.732827], [-79.768899, 19.752036], [-79.7459, 19.757631], [-79.731516, 19.752102], [-79.726643, 19.737063], [-79.773893, 19.713364], [-79.855001, 19.690917], [-79.893754, 19.679673], [-79.871889, 19.704636]]]]}}], "numberMatched": 1, "numberReturned": 1, "bbox": [-81.416542, 19.263864, -79.726643, 19.757631], "crs": "http://www.opengis.net/def/crs/EPSG/0/4326"}