{"type": "FeatureCollection", "id": "http://www.lexvo.org/page/iso639-1/fl", "name": "fl", "features": [{"type": "Feature", "id": "http://www.semwebtech.org/mondial/countries/FL", "name": "", "dateprops": ["http://www.semwebtech.org/mondial/10/meta#independenceDate", "http://www.semwebtech.org/mondial/10/meta#independenceDate"], "properties": {"http://rdfs.org/ns/void#inDataset": ["http://www.semwebtech.org/mondial/md_dataset"], "http://www.opengis.net/ont/geosparql#hasGeometry": ["http://www.semwebtech.org/mondial/countries/FL_geom"], "http://www.opengis.net/ont/geosparql#hasMetricArea": ["160"], "http://www.semwebtech.org/mondial/10/meta#capital": ["http://www.semwebtech.org/mondial/countries/FL/cities/Vaduz"], "http://www.semwebtech.org/mondial/10/meta#carCode": ["http://www.lexvo.org/page/iso639-1/fl"], "http://www.semwebtech.org/mondial/10/meta#gdpAgri": ["8"], "http://www.semwebtech.org/mondial/10/meta#gdpInd": ["37"], "http://www.semwebtech.org/mondial/10/meta#gdpServ": ["55"], "http://www.semwebtech.org/mondial/10/meta#gdpTotal": ["5113"], "http://www.semwebtech.org/mondial/10/meta#government": ["hereditary constitutional monarchy"], "http://www.semwebtech.org/mondial/10/meta#hasCity": ["http://www.semwebtech.org/mondial/countries/FL/cities/Vaduz"], "http://www.semwebtech.org/mondial/10/meta#independenceDate": ["1806-07-12"], "http://www.semwebtech.org/mondial/10/meta#infantMortality": ["4.33"], "http://www.semwebtech.org/mondial/10/meta#neighbor": ["http://www.semwebtech.org/mondial/countries/A", "http://www.semwebtech.org/mondial/countries/CH"], "http://www.semwebtech.org/mondial/10/meta#unemployment": ["2.3"], "http://www.semwebtech.org/mondial/10/meta#wasDependentOf": ["http://www.semwebtech.org/mondial/politicalbodies/Holy+Roman+Empire"], "http://www.w3.org/1999/02/22-rdf-syntax-ns#type": ["http://www.semwebtech.org/mondial/10/meta#Country"], "http://www.w3.org/2000/01/rdf-schema#label": ["Liechtenstein"], "http://www.w3.org/2004/02/skos/core#prefLabel": ["F\u00fcrstentum Liechtenstein (das)"], "http://www.w3.org/ns/sosa/hasObservation": ["http://www.semwebtech.org/mondial/countries/FL_obeth1", "http://www.semwebtech.org/mondial/countries/FL_obeth2", "http://www.semwebtech.org/mondial/countries/FL_obeth3", "http://www.semwebtech.org/mondial/countries/FL_obeth4", "http://www.semwebtech.org/mondial/countries/FL_obeth5", "http://www.semwebtech.org/mondial/countries/FL_obpop", "http://www.semwebtech.org/mondial/countries/FL_obpopg", "http://www.semwebtech.org/mondial/countries/FL_obpophistcoll", "http://www.semwebtech.org/mondial/countries/FL_obrel1", "http://www.semwebtech.org/mondial/countries/FL_obrel2", "http://www.semwebtech.org/mondial/countries/FL_obrel3", "http://www.semwebtech.org/mondial/countries/FL_obrel4", "http://www.semwebtech.org/mondial/countries/FL_obrel5"]}, "geometry": {"type": "Polygon", "coordinates": [[[9.521155, 47.262801], [9.53025, 47.253654], [9.547096, 47.243035], [9.540378, 47.229108], [9.544823, 47.220323], [9.554331, 47.211615], [9.562909, 47.19774], [9.561876, 47.190609], [9.551954, 47.175571], [9.552057, 47.16689], [9.581823, 47.154901], [9.605594, 47.132266], [9.615723, 47.106764], [9.608798, 47.080771], [9.581203, 47.05687], [9.560636, 47.0524], [9.499554, 47.059351], [9.477023, 47.063898], [9.475886, 47.073226], [9.487565, 47.083949], [9.502861, 47.094698], [9.51237, 47.10803], [9.511853, 47.129372], [9.503481, 47.145392], [9.492629, 47.15981], [9.484981, 47.176346], [9.487358, 47.210014], [9.504618, 47.243732], [9.521155, 47.262801]]]}}], "numberMatched": 1, "numberReturned": 1, "bbox": [9.475886, 47.0524, 9.615723, 47.262801], "crs": "http://www.opengis.net/def/crs/EPSG/0/4326"}