{"type": "FeatureCollection", "id": "http://www.lexvo.org/page/iso639-1/sx", "name": "sx", "features": [{"type": "Feature", "id": "http://www.semwebtech.org/mondial/countries/SX", "name": "", "dateprops": [], "properties": {"http://rdfs.org/ns/void#inDataset": ["http://www.semwebtech.org/mondial/md_dataset"], "http://www.opengis.net/ont/geosparql#hasGeometry": ["http://www.semwebtech.org/mondial/countries/SX_geom"], "http://www.opengis.net/ont/geosparql#hasMetricArea": ["34"], "http://www.semwebtech.org/mondial/10/meta#capital": ["http://www.semwebtech.org/mondial/countries/SX/cities/Philipsburg"], "http://www.semwebtech.org/mondial/10/meta#carCode": ["http://www.lexvo.org/page/iso639-1/sx"], "http://www.semwebtech.org/mondial/10/meta#dependentOf": ["http://www.semwebtech.org/mondial/countries/NL"], "http://www.semwebtech.org/mondial/10/meta#gdpAgri": ["0.4"], "http://www.semwebtech.org/mondial/10/meta#gdpInd": ["18.3"], "http://www.semwebtech.org/mondial/10/meta#gdpServ": ["81.3"], "http://www.semwebtech.org/mondial/10/meta#gdpTotal": ["794.7"], "http://www.semwebtech.org/mondial/10/meta#government": ["parliamentary"], "http://www.semwebtech.org/mondial/10/meta#hasCity": ["http://www.semwebtech.org/mondial/countries/SX/cities/Philipsburg"], "http://www.semwebtech.org/mondial/10/meta#infantMortality": ["9.05"], "http://www.semwebtech.org/mondial/10/meta#neighbor": ["http://www.semwebtech.org/mondial/countries/SMAR"], "http://www.semwebtech.org/mondial/10/meta#unemployment": ["12"], "http://www.w3.org/1999/02/22-rdf-syntax-ns#type": ["http://www.semwebtech.org/mondial/10/meta#Country"], "http://www.w3.org/2000/01/rdf-schema#label": ["Sint Maarten"], "http://www.w3.org/2004/02/skos/core#prefLabel": ["Sint Maarten"], "http://www.w3.org/ns/sosa/hasObservation": ["http://www.semwebtech.org/mondial/countries/SX_obpop", "http://www.semwebtech.org/mondial/countries/SX_obpophist0", "http://www.semwebtech.org/mondial/countries/SX_obpophist1", "http://www.semwebtech.org/mondial/countries/SX_obpophist2", "http://www.semwebtech.org/mondial/countries/SX_obpophist3", "http://www.semwebtech.org/mondial/countries/SX_obpophist4", "http://www.semwebtech.org/mondial/countries/SX_obpophist5", "http://www.semwebtech.org/mondial/countries/SX_obpophist6", "http://www.semwebtech.org/mondial/countries/SX_obpophist7", "http://www.semwebtech.org/mondial/countries/SX_obpophist8", "http://www.semwebtech.org/mondial/countries/SX_obrel1", "http://www.semwebtech.org/mondial/countries/SX_obrel2", "http://www.semwebtech.org/mondial/countries/SX_obrel3", "http://www.semwebtech.org/mondial/countries/SX_obrel4", "http://www.semwebtech.org/mondial/countries/SX_obrel5", "http://www.semwebtech.org/mondial/countries/SX_obrel6"]}, "geometry": {"type": "Polygon", "coordinates": [[[-63.107004, 18.06212], [-63.085886, 18.058511], [-63.017569, 18.033391], [-63.030629, 18.01911], [-63.097646, 18.035956], [-63.112172, 18.043036], [-63.118886, 18.0515], [-63.107004, 18.059475], [-63.107004, 18.06212]]]}}], "numberMatched": 1, "numberReturned": 1, "bbox": [-63.118886, 18.01911, -63.017569, 18.06212], "crs": "http://www.opengis.net/def/crs/EPSG/0/4326"}