{"type": "FeatureCollection", "id": "http://www.lexvo.org/page/iso639-1/wd", "name": "wd", "features": [{"type": "Feature", "id": "http://www.semwebtech.org/mondial/countries/WD", "name": "", "dateprops": ["http://www.semwebtech.org/mondial/10/meta#independenceDate", "http://www.semwebtech.org/mondial/10/meta#independenceDate"], "properties": {"http://rdfs.org/ns/void#inDataset": ["http://www.semwebtech.org/mondial/md_dataset"], "http://www.opengis.net/ont/geosparql#hasGeometry": ["http://www.semwebtech.org/mondial/countries/WD_geom"], "http://www.opengis.net/ont/geosparql#hasMetricArea": ["746"], "http://www.semwebtech.org/mondial/10/meta#capital": ["http://www.semwebtech.org/mondial/countries/WD/cities/Roseau"], "http://www.semwebtech.org/mondial/10/meta#carCode": ["http://www.lexvo.org/page/iso639-1/wd"], "http://www.semwebtech.org/mondial/10/meta#gdpAgri": ["15.7"], "http://www.semwebtech.org/mondial/10/meta#gdpInd": ["15.6"], "http://www.semwebtech.org/mondial/10/meta#gdpServ": ["68.7"], "http://www.semwebtech.org/mondial/10/meta#gdpTotal": ["495"], "http://www.semwebtech.org/mondial/10/meta#government": ["http://www.wikidata.org/entity/Q3043547"], "http://www.semwebtech.org/mondial/10/meta#hasCity": ["http://www.semwebtech.org/mondial/countries/WD/cities/Roseau"], "http://www.semwebtech.org/mondial/10/meta#independenceDate": ["1978-11-03"], "http://www.semwebtech.org/mondial/10/meta#infantMortality": ["11.61"], "http://www.semwebtech.org/mondial/10/meta#unemployment": ["23"], "http://www.semwebtech.org/mondial/10/meta#wasDependentOf": ["http://www.semwebtech.org/mondial/countries/GB"], "http://www.w3.org/1999/02/22-rdf-syntax-ns#type": ["http://www.semwebtech.org/mondial/10/meta#Country"], "http://www.w3.org/2000/01/rdf-schema#label": ["Dominica"], "http://www.w3.org/2004/02/skos/core#prefLabel": ["the Commonwealth of Dominica"], "http://www.w3.org/ns/sosa/hasObservation": ["http://www.semwebtech.org/mondial/countries/WD_obeth1", "http://www.semwebtech.org/mondial/countries/WD_obeth2", "http://www.semwebtech.org/mondial/countries/WD_obeth3", "http://www.semwebtech.org/mondial/countries/WD_obeth4", "http://www.semwebtech.org/mondial/countries/WD_obpop", "http://www.semwebtech.org/mondial/countries/WD_obpophist0", "http://www.semwebtech.org/mondial/countries/WD_obpophist1", "http://www.semwebtech.org/mondial/countries/WD_obpophist10", "http://www.semwebtech.org/mondial/countries/WD_obpophist11", "http://www.semwebtech.org/mondial/countries/WD_obpophist12", "http://www.semwebtech.org/mondial/countries/WD_obpophist2", "http://www.semwebtech.org/mondial/countries/WD_obpophist3", "http://www.semwebtech.org/mondial/countries/WD_obpophist4", "http://www.semwebtech.org/mondial/countries/WD_obpophist5", "http://www.semwebtech.org/mondial/countries/WD_obpophist6", "http://www.semwebtech.org/mondial/countries/WD_obpophist7", "http://www.semwebtech.org/mondial/countries/WD_obpophist8", "http://www.semwebtech.org/mondial/countries/WD_obpophist9", "http://www.semwebtech.org/mondial/countries/WD_obrel1", "http://www.semwebtech.org/mondial/countries/WD_obrel2", "http://www.semwebtech.org/mondial/countries/WD_obrel3", "http://www.semwebtech.org/mondial/countries/WD_obrel4"]}, "geometry": {"type": "Polygon", "coordinates": [[[-61.362864, 15.201809], [-61.374094, 15.20482], [-61.376129, 15.212836], [-61.372792, 15.237209], [-61.37328, 15.266425], [-61.372792, 15.270697], [-61.378285, 15.28205], [-61.39094, 15.296291], [-61.393219, 15.308295], [-61.395009, 15.333075], [-61.399566, 15.351142], [-61.413726, 15.380561], [-61.415679, 15.387641], [-61.41808, 15.405951], [-61.421213, 15.41474], [-61.444203, 15.436835], [-61.447865, 15.445136], [-61.449778, 15.454657], [-61.454254, 15.46483], [-61.460032, 15.472886], [-61.465566, 15.476142], [-61.472076, 15.481391], [-61.474273, 15.493476], [-61.475209, 15.517768], [-61.47936, 15.525458], [-61.484853, 15.530341], [-61.488922, 15.535712], [-61.488881, 15.545071], [-61.483998, 15.551581], [-61.467275, 15.562974], [-61.462148, 15.572984], [-61.469065, 15.574286], [-61.481191, 15.578559], [-61.488881, 15.57925], [-61.480621, 15.59101], [-61.468984, 15.633857], [-61.449208, 15.633083], [-61.437245, 15.632636], [-61.425933, 15.628485], [-61.413726, 15.619574], [-61.397572, 15.596625], [-61.384633, 15.588365], [-61.36974, 15.595933], [-61.35733, 15.598293], [-61.307688, 15.57925], [-61.305898, 15.572455], [-61.29955, 15.557196], [-61.289622, 15.540961], [-61.284047, 15.531399], [-61.268625, 15.509914], [-61.267161, 15.507799], [-61.25768, 15.472602], [-61.256012, 15.43594], [-61.262929, 15.407904], [-61.258372, 15.406317], [-61.254221, 15.402981], [-61.249257, 15.401068], [-61.255523, 15.364569], [-61.254058, 15.332668], [-61.253733, 15.324693], [-61.256663, 15.285346], [-61.277211, 15.25023], [-61.284413, 15.244818], [-61.289296, 15.243598], [-61.293202, 15.243883], [-61.303375, 15.24258], [-61.311879, 15.244534], [-61.318186, 15.243394], [-61.323598, 15.238593], [-61.328725, 15.225572], [-61.342681, 15.219672], [-61.345937, 15.212348], [-61.346384, 15.211697], [-61.350738, 15.205146], [-61.362864, 15.201809]]]}}], "numberMatched": 1, "numberReturned": 1, "bbox": [-61.488922, 15.201809, -61.249257, 15.633857], "crs": "http://www.opengis.net/def/crs/EPSG/0/4326"}