{"type": "FeatureCollection", "id": "http://www.lexvo.org/page/iso639-1/tuv", "name": "tuv", "features": [{"type": "Feature", "id": "http://www.semwebtech.org/mondial/countries/TUV", "name": "", "dateprops": ["http://www.semwebtech.org/mondial/10/meta#independenceDate", "http://www.semwebtech.org/mondial/10/meta#independenceDate"], "properties": {"http://rdfs.org/ns/void#inDataset": ["http://www.semwebtech.org/mondial/md_dataset"], "http://www.opengis.net/ont/geosparql#hasGeometry": ["http://www.semwebtech.org/mondial/countries/TUV_geom"], "http://www.opengis.net/ont/geosparql#hasMetricArea": ["26"], "http://www.semwebtech.org/mondial/10/meta#capital": ["http://www.semwebtech.org/mondial/countries/TUV/cities/Funafuti"], "http://www.semwebtech.org/mondial/10/meta#carCode": ["http://www.lexvo.org/page/iso639-1/tuv"], "http://www.semwebtech.org/mondial/10/meta#gdpAgri": ["16.6"], "http://www.semwebtech.org/mondial/10/meta#gdpInd": ["27.2"], "http://www.semwebtech.org/mondial/10/meta#gdpServ": ["56.2"], "http://www.semwebtech.org/mondial/10/meta#gdpTotal": ["38"], "http://www.semwebtech.org/mondial/10/meta#government": ["parliamentary democracy and a Commonwealth realm"], "http://www.semwebtech.org/mondial/10/meta#hasCity": ["http://www.semwebtech.org/mondial/countries/TUV/cities/Funafuti"], "http://www.semwebtech.org/mondial/10/meta#independenceDate": ["1978-10-01"], "http://www.semwebtech.org/mondial/10/meta#infantMortality": ["31.69"], "http://www.semwebtech.org/mondial/10/meta#wasDependentOf": ["http://www.semwebtech.org/mondial/countries/GB"], "http://www.w3.org/1999/02/22-rdf-syntax-ns#type": ["http://www.semwebtech.org/mondial/10/meta#Country"], "http://www.w3.org/2000/01/rdf-schema#label": ["Tuvalu"], "http://www.w3.org/2004/02/skos/core#prefLabel": ["Tuvalu"], "http://www.w3.org/ns/sosa/hasObservation": ["http://www.semwebtech.org/mondial/countries/TUV_obeth1", "http://www.semwebtech.org/mondial/countries/TUV_obeth2", "http://www.semwebtech.org/mondial/countries/TUV_obeth3", "http://www.semwebtech.org/mondial/countries/TUV_obpop", "http://www.semwebtech.org/mondial/countries/TUV_obpopg", "http://www.semwebtech.org/mondial/countries/TUV_obpophistcoll", "http://www.semwebtech.org/mondial/countries/TUV_obrel1", "http://www.semwebtech.org/mondial/countries/TUV_obrel2", "http://www.semwebtech.org/mondial/countries/TUV_obrel3", "http://www.semwebtech.org/mondial/countries/TUV_obrel4"]}, "geometry": {"type": "MultiPolygon", "coordinates": [[[[179.191254, -8.542087], [179.200043, -8.529555], [179.204112, -8.518976], [179.202322, -8.509698], [179.19809, -8.497817], [179.19752, -8.481541], [179.199392, -8.460626], [179.206391, -8.474054], [179.207205, -8.498468], [179.215505, -8.511326], [179.21754, -8.520603], [179.209727, -8.529962], [179.191254, -8.542087]]], [[[178.380544, -8.070001], [178.373302, -8.069024], [178.375499, -8.056085], [178.383149, -8.039239], [178.390636, -8.026544], [178.380544, -8.070001]]], [[[177.152599, -7.197361], [177.152354, -7.195082], [177.150401, -7.190362], [177.150076, -7.188165], [177.153005, -7.195001], [177.153331, -7.199151], [177.152599, -7.200291], [177.152599, -7.197361]]], [[[176.314301, -6.302341], [176.319184, -6.289239], [176.322927, -6.288832], [176.322439, -6.295099], [176.314301, -6.302341]]], [[[177.344086, -6.121026], [177.339854, -6.114516], [177.338145, -6.111017], [177.337169, -6.108168], [177.348806, -6.110528], [177.356619, -6.114516], [177.356293, -6.118748], [177.344086, -6.121026]]], [[[176.135265, -5.692804], [176.125255, -5.679132], [176.129893, -5.677504], [176.140391, -5.687188], [176.148448, -5.70672], [176.135265, -5.692804]]], [[[179.906749, -9.399347], [179.906098, -9.418634], [179.905284, -9.420668], [179.904063, -9.400486], [179.898611, -9.386814], [179.901215, -9.387953], [179.906749, -9.399347]]], [[[179.867849, -9.343194], [179.873302, -9.346856], [179.878429, -9.360772], [179.876964, -9.36297], [179.871755, -9.350193], [179.867442, -9.344334], [179.867849, -9.343194]]], [[[178.682791, -7.491469], [178.667979, -7.463637], [178.665212, -7.454034], [178.688324, -7.474379], [178.691091, -7.475356], [178.69337, -7.483982], [178.694102, -7.493829], [178.691417, -7.49863], [178.682791, -7.491469]]]]}}], "numberMatched": 1, "numberReturned": 1, "bbox": [176.125255, -9.420668, 179.906749, -5.677504], "crs": "http://www.opengis.net/def/crs/EPSG/0/4326"}