{"type": "FeatureCollection", "id": "http://www.lexvo.org/page/iso639-1/aru", "name": "aru", "features": [{"type": "Feature", "id": "http://www.semwebtech.org/mondial/countries/ARU", "name": "", "dateprops": [], "properties": {"http://rdfs.org/ns/void#inDataset": ["http://www.semwebtech.org/mondial/md_dataset"], "http://www.opengis.net/ont/geosparql#hasGeometry": ["http://www.semwebtech.org/mondial/countries/ARU_geom"], "http://www.opengis.net/ont/geosparql#hasMetricArea": ["193"], "http://www.semwebtech.org/mondial/10/meta#capital": ["http://www.semwebtech.org/mondial/countries/ARU/cities/Oranjestad"], "http://www.semwebtech.org/mondial/10/meta#carCode": ["http://www.lexvo.org/page/iso639-1/aru"], "http://www.semwebtech.org/mondial/10/meta#dependentOf": ["http://www.semwebtech.org/mondial/countries/NL"], "http://www.semwebtech.org/mondial/10/meta#gdpAgri": ["0.4"], "http://www.semwebtech.org/mondial/10/meta#gdpInd": ["33.3"], "http://www.semwebtech.org/mondial/10/meta#gdpServ": ["66.3"], "http://www.semwebtech.org/mondial/10/meta#gdpTotal": ["2516"], "http://www.semwebtech.org/mondial/10/meta#government": ["http://www.wikidata.org/entity/Q3043547"], "http://www.semwebtech.org/mondial/10/meta#hasCity": ["http://www.semwebtech.org/mondial/countries/ARU/cities/Oranjestad"], "http://www.semwebtech.org/mondial/10/meta#infantMortality": ["11.74"], "http://www.semwebtech.org/mondial/10/meta#unemployment": ["6.9"], "http://www.w3.org/1999/02/22-rdf-syntax-ns#type": ["http://www.semwebtech.org/mondial/10/meta#Country"], "http://www.w3.org/2000/01/rdf-schema#label": ["Aruba"], "http://www.w3.org/2004/02/skos/core#prefLabel": ["Aruba"], "http://www.w3.org/ns/sosa/hasObservation": ["http://www.semwebtech.org/mondial/countries/ARU_obeth1", "http://www.semwebtech.org/mondial/countries/ARU_obeth2", "http://www.semwebtech.org/mondial/countries/ARU_obeth3", "http://www.semwebtech.org/mondial/countries/ARU_obeth4", "http://www.semwebtech.org/mondial/countries/ARU_obeth5", "http://www.semwebtech.org/mondial/countries/ARU_obpop", "http://www.semwebtech.org/mondial/countries/ARU_obpophist0", "http://www.semwebtech.org/mondial/countries/ARU_obpophist1", "http://www.semwebtech.org/mondial/countries/ARU_obpophist2", "http://www.semwebtech.org/mondial/countries/ARU_obpophist3", "http://www.semwebtech.org/mondial/countries/ARU_obpophist4", "http://www.semwebtech.org/mondial/countries/ARU_obpophist5", "http://www.semwebtech.org/mondial/countries/ARU_obpophist6", "http://www.semwebtech.org/mondial/countries/ARU_obpophist7", "http://www.semwebtech.org/mondial/countries/ARU_obrel1", "http://www.semwebtech.org/mondial/countries/ARU_obrel2", "http://www.semwebtech.org/mondial/countries/ARU_obrel3", "http://www.semwebtech.org/mondial/countries/ARU_obrel4", "http://www.semwebtech.org/mondial/countries/ARU_obrel5"], "http://www.semwebtech.org/mondial/10/meta#independenceDate": ""}, "geometry": {"type": "Polygon", "coordinates": [[[-69.996938, 12.577582], [-69.936391, 12.531724], [-69.924672, 12.519232], [-69.915761, 12.497016], [-69.880198, 12.453559], [-69.87682, 12.427395], [-69.888092, 12.41767], [-69.908803, 12.417792], [-69.930531, 12.425971], [-69.945139, 12.440375], [-69.924672, 12.440375], [-69.924672, 12.447211], [-69.958567, 12.463202], [-70.027659, 12.522935], [-70.048085, 12.531155], [-70.058095, 12.537177], [-70.062408, 12.54682], [-70.060374, 12.556952], [-70.051096, 12.574042], [-70.048736, 12.583726], [-70.052642, 12.600002], [-70.059641, 12.614244], [-70.061106, 12.625393], [-70.048736, 12.632148], [-70.007151, 12.585517], [-69.996938, 12.577582]]]}}], "numberMatched": 1, "numberReturned": 1, "bbox": [-70.062408, 12.41767, -69.87682, 12.632148], "crs": "http://www.opengis.net/def/crs/EPSG/0/4326"}