{"type": "FeatureCollection", "id": "http://www.lexvo.org/page/iso639-1/gbj", "name": "gbj", "features": [{"type": "Feature", "id": "http://www.semwebtech.org/mondial/countries/GBJ", "name": "", "dateprops": [], "properties": {"http://rdfs.org/ns/void#inDataset": ["http://www.semwebtech.org/mondial/md_dataset"], "http://www.opengis.net/ont/geosparql#hasGeometry": ["http://www.semwebtech.org/mondial/countries/GBJ_geom"], "http://www.opengis.net/ont/geosparql#hasMetricArea": ["117"], "http://www.semwebtech.org/mondial/10/meta#capital": ["http://www.semwebtech.org/mondial/countries/GBJ/cities/Saint+Helier"], "http://www.semwebtech.org/mondial/10/meta#carCode": ["http://www.lexvo.org/page/iso639-1/gbj"], "http://www.semwebtech.org/mondial/10/meta#dependentOf": ["http://www.semwebtech.org/mondial/countries/GB"], "http://www.semwebtech.org/mondial/10/meta#gdpAgri": ["2"], "http://www.semwebtech.org/mondial/10/meta#gdpInd": ["2"], "http://www.semwebtech.org/mondial/10/meta#gdpServ": ["96"], "http://www.semwebtech.org/mondial/10/meta#gdpTotal": ["5100"], "http://www.semwebtech.org/mondial/10/meta#government": ["http://www.wikidata.org/entity/Q3043547"], "http://www.semwebtech.org/mondial/10/meta#hasCity": ["http://www.semwebtech.org/mondial/countries/GBJ/cities/Saint+Helier"], "http://www.semwebtech.org/mondial/10/meta#infantMortality": ["3.86"], "http://www.semwebtech.org/mondial/10/meta#unemployment": ["1.7"], "http://www.w3.org/1999/02/22-rdf-syntax-ns#type": ["http://www.semwebtech.org/mondial/10/meta#Country"], "http://www.w3.org/2000/01/rdf-schema#label": ["Jersey"], "http://www.w3.org/2004/02/skos/core#prefLabel": ["the Bailiwick of Jersey"], "http://www.w3.org/ns/sosa/hasObservation": ["http://www.semwebtech.org/mondial/countries/GBJ_obeth1", "http://www.semwebtech.org/mondial/countries/GBJ_obeth2", "http://www.semwebtech.org/mondial/countries/GBJ_obeth3", "http://www.semwebtech.org/mondial/countries/GBJ_obeth4", "http://www.semwebtech.org/mondial/countries/GBJ_obpop", "http://www.semwebtech.org/mondial/countries/GBJ_obpophist0", "http://www.semwebtech.org/mondial/countries/GBJ_obpophist1", "http://www.semwebtech.org/mondial/countries/GBJ_obpophist10", "http://www.semwebtech.org/mondial/countries/GBJ_obpophist11", "http://www.semwebtech.org/mondial/countries/GBJ_obpophist12", "http://www.semwebtech.org/mondial/countries/GBJ_obpophist13", "http://www.semwebtech.org/mondial/countries/GBJ_obpophist14", "http://www.semwebtech.org/mondial/countries/GBJ_obpophist15", "http://www.semwebtech.org/mondial/countries/GBJ_obpophist16", "http://www.semwebtech.org/mondial/countries/GBJ_obpophist17", "http://www.semwebtech.org/mondial/countries/GBJ_obpophist18", "http://www.semwebtech.org/mondial/countries/GBJ_obpophist19", "http://www.semwebtech.org/mondial/countries/GBJ_obpophist2", "http://www.semwebtech.org/mondial/countries/GBJ_obpophist20", "http://www.semwebtech.org/mondial/countries/GBJ_obpophist21", "http://www.semwebtech.org/mondial/countries/GBJ_obpophist22", "http://www.semwebtech.org/mondial/countries/GBJ_obpophist23", "http://www.semwebtech.org/mondial/countries/GBJ_obpophist24", "http://www.semwebtech.org/mondial/countries/GBJ_obpophist3", "http://www.semwebtech.org/mondial/countries/GBJ_obpophist4", "http://www.semwebtech.org/mondial/countries/GBJ_obpophist5", "http://www.semwebtech.org/mondial/countries/GBJ_obpophist6", "http://www.semwebtech.org/mondial/countries/GBJ_obpophist7", "http://www.semwebtech.org/mondial/countries/GBJ_obpophist8", "http://www.semwebtech.org/mondial/countries/GBJ_obpophist9", "http://www.semwebtech.org/mondial/countries/GBJ_obrel1", "http://www.semwebtech.org/mondial/countries/GBJ_obrel2"], "http://www.semwebtech.org/mondial/10/meta#independenceDate": ""}, "geometry": {"type": "Polygon", "coordinates": [[[-2.082672, 49.26024], [-2.06786, 49.250678], [-2.02066, 49.235256], [-2.021962, 49.225491], [-2.017323, 49.221381], [-2.011871, 49.215277], [-2.00829, 49.21247], [-2.016998, 49.207221], [-2.020985, 49.200751], [-2.022043, 49.19245], [-2.021962, 49.181383], [-2.024526, 49.171332], [-2.031158, 49.171454], [-2.040028, 49.175727], [-2.049224, 49.17829], [-2.079986, 49.178697], [-2.096995, 49.183661], [-2.120229, 49.199164], [-2.128896, 49.20307], [-2.137929, 49.205634], [-2.144846, 49.205634], [-2.152943, 49.199937], [-2.160634, 49.190741], [-2.168691, 49.17829], [-2.177154, 49.180162], [-2.189687, 49.189114], [-2.200103, 49.191962], [-2.202952, 49.190416], [-2.223378, 49.184719], [-2.233632, 49.184516], [-2.226471, 49.206], [-2.233225, 49.228502], [-2.242014, 49.247952], [-2.241119, 49.26024], [-2.22936, 49.263007], [-2.215199, 49.26024], [-2.196278, 49.253404], [-2.182729, 49.254055], [-2.172353, 49.256252], [-2.162709, 49.260403], [-2.151682, 49.267035], [-2.143788, 49.261868], [-2.121978, 49.258287], [-2.110666, 49.253404], [-2.103871, 49.258205], [-2.097564, 49.25967], [-2.082672, 49.26024]]]}}], "numberMatched": 1, "numberReturned": 1, "bbox": [-2.242014, 49.171332, -2.00829, 49.267035], "crs": "http://www.opengis.net/def/crs/EPSG/0/4326"}