{"type": "FeatureCollection", "id": "http://www.lexvo.org/page/iso639-1/nau", "name": "nau", "features": [{"type": "Feature", "id": "http://www.semwebtech.org/mondial/countries/NAU", "name": "", "dateprops": ["http://www.semwebtech.org/mondial/10/meta#independenceDate", "http://www.semwebtech.org/mondial/10/meta#independenceDate"], "properties": {"http://rdfs.org/ns/void#inDataset": ["http://www.semwebtech.org/mondial/md_dataset"], "http://www.opengis.net/ont/geosparql#hasGeometry": ["http://www.semwebtech.org/mondial/countries/NAU_geom"], "http://www.opengis.net/ont/geosparql#hasMetricArea": ["21"], "http://www.semwebtech.org/mondial/10/meta#capital": ["http://www.semwebtech.org/mondial/countries/NAU/cities/Yaren"], "http://www.semwebtech.org/mondial/10/meta#carCode": ["http://www.lexvo.org/page/iso639-1/nau"], "http://www.semwebtech.org/mondial/10/meta#gdpAgri": ["6.1"], "http://www.semwebtech.org/mondial/10/meta#gdpInd": ["33"], "http://www.semwebtech.org/mondial/10/meta#gdpServ": ["60.8"], "http://www.semwebtech.org/mondial/10/meta#gdpTotal": ["100"], "http://www.semwebtech.org/mondial/10/meta#government": ["http://www.wikidata.org/entry/Q7270"], "http://www.semwebtech.org/mondial/10/meta#hasCity": ["http://www.semwebtech.org/mondial/countries/NAU/cities/Yaren"], "http://www.semwebtech.org/mondial/10/meta#independenceDate": ["1968-01-31"], "http://www.semwebtech.org/mondial/10/meta#infantMortality": ["8.21"], "http://www.semwebtech.org/mondial/10/meta#unemployment": ["90"], "http://www.semwebtech.org/mondial/10/meta#wasDependentOf": ["http://www.semwebtech.org/mondial/organizations/UN"], "http://www.w3.org/1999/02/22-rdf-syntax-ns#type": ["http://www.semwebtech.org/mondial/10/meta#Country"], "http://www.w3.org/2000/01/rdf-schema#label": ["Nauru"], "http://www.w3.org/2004/02/skos/core#prefLabel": ["the Republic of Nauru"], "http://www.w3.org/ns/sosa/hasObservation": ["http://www.semwebtech.org/mondial/countries/NAU_obeth1", "http://www.semwebtech.org/mondial/countries/NAU_obeth2", "http://www.semwebtech.org/mondial/countries/NAU_obeth3", "http://www.semwebtech.org/mondial/countries/NAU_obpop", "http://www.semwebtech.org/mondial/countries/NAU_obpophist0", "http://www.semwebtech.org/mondial/countries/NAU_obpophist1", "http://www.semwebtech.org/mondial/countries/NAU_obpophist10", "http://www.semwebtech.org/mondial/countries/NAU_obpophist11", "http://www.semwebtech.org/mondial/countries/NAU_obpophist2", "http://www.semwebtech.org/mondial/countries/NAU_obpophist3", "http://www.semwebtech.org/mondial/countries/NAU_obpophist4", "http://www.semwebtech.org/mondial/countries/NAU_obpophist5", "http://www.semwebtech.org/mondial/countries/NAU_obpophist6", "http://www.semwebtech.org/mondial/countries/NAU_obpophist7", "http://www.semwebtech.org/mondial/countries/NAU_obpophist8", "http://www.semwebtech.org/mondial/countries/NAU_obpophist9", "http://www.semwebtech.org/mondial/countries/NAU_obrel1", "http://www.semwebtech.org/mondial/countries/NAU_obrel2", "http://www.semwebtech.org/mondial/countries/NAU_obrel3", "http://www.semwebtech.org/mondial/countries/NAU_obrel4"]}, "geometry": {"type": "Polygon", "coordinates": [[[166.938813, -0.490411], [166.955577, -0.497979], [166.958263, -0.517673], [166.951345, -0.539158], [166.938813, -0.551853], [166.916352, -0.54754], [166.906993, -0.524835], [166.913422, -0.500177], [166.938813, -0.490411]]]}}], "numberMatched": 1, "numberReturned": 1, "bbox": [166.906993, -0.551853, 166.958263, -0.490411], "crs": "http://www.opengis.net/def/crs/EPSG/0/4326"}