{"type": "FeatureCollection", "id": "http://www.lexvo.org/page/iso639-1/nu", "name": "nu", "features": [{"type": "Feature", "id": "http://www.semwebtech.org/mondial/countries/NU", "name": "", "dateprops": ["http://www.semwebtech.org/mondial/10/meta#independenceDate", "http://www.semwebtech.org/mondial/10/meta#independenceDate"], "properties": {"http://rdfs.org/ns/void#inDataset": ["http://www.semwebtech.org/mondial/md_dataset"], "http://www.opengis.net/ont/geosparql#hasGeometry": ["http://www.semwebtech.org/mondial/countries/NU_geom"], "http://www.opengis.net/ont/geosparql#hasMetricArea": ["260"], "http://www.semwebtech.org/mondial/10/meta#capital": ["http://www.semwebtech.org/mondial/countries/NU/cities/Alofi"], "http://www.semwebtech.org/mondial/10/meta#carCode": ["http://www.lexvo.org/page/iso639-1/nu"], "http://www.semwebtech.org/mondial/10/meta#gdpAgri": ["23.5"], "http://www.semwebtech.org/mondial/10/meta#gdpInd": ["26.9"], "http://www.semwebtech.org/mondial/10/meta#gdpServ": ["49.5"], "http://www.semwebtech.org/mondial/10/meta#gdpTotal": ["10"], "http://www.semwebtech.org/mondial/10/meta#government": ["self-governing parliamentary democracy"], "http://www.semwebtech.org/mondial/10/meta#hasCity": ["http://www.semwebtech.org/mondial/countries/NU/cities/Alofi"], "http://www.semwebtech.org/mondial/10/meta#independenceDate": ["1974-10-19"], "http://www.semwebtech.org/mondial/10/meta#unemployment": ["12"], "http://www.semwebtech.org/mondial/10/meta#wasDependentOf": ["http://www.semwebtech.org/mondial/countries/NZ"], "http://www.w3.org/1999/02/22-rdf-syntax-ns#type": ["http://www.semwebtech.org/mondial/10/meta#Country"], "http://www.w3.org/2000/01/rdf-schema#label": ["Niue"], "http://www.w3.org/2004/02/skos/core#prefLabel": ["Niu\u0113"], "http://www.w3.org/ns/sosa/hasObservation": ["http://www.semwebtech.org/mondial/countries/NU_obeth1", "http://www.semwebtech.org/mondial/countries/NU_obpop", "http://www.semwebtech.org/mondial/countries/NU_obpopg", "http://www.semwebtech.org/mondial/countries/NU_obpophistcoll", "http://www.semwebtech.org/mondial/countries/NU_obrel1", "http://www.semwebtech.org/mondial/countries/NU_obrel2", "http://www.semwebtech.org/mondial/countries/NU_obrel3", "http://www.semwebtech.org/mondial/countries/NU_obrel4"]}, "geometry": {"type": "Polygon", "coordinates": [[[-169.851145, -18.965102], [-169.825307, -18.96795], [-169.822621, -18.972589], [-169.79426, -19.047133], [-169.782908, -19.068943], [-169.796864, -19.073907], [-169.805979, -19.081964], [-169.823842, -19.102309], [-169.865427, -19.129653], [-169.872996, -19.125909], [-169.880971, -19.129083], [-169.898915, -19.142755], [-169.902048, -19.132989], [-169.909983, -19.128595], [-169.921091, -19.128025], [-169.933705, -19.129653], [-169.930531, -19.126397], [-169.927968, -19.122817], [-169.924794, -19.119317], [-169.919423, -19.115981], [-169.924062, -19.099379], [-169.926259, -19.094903], [-169.950429, -19.087335], [-169.947703, -19.069431], [-169.926259, -19.03753], [-169.927968, -19.031834], [-169.931589, -19.026544], [-169.934397, -19.020929], [-169.933705, -19.013604], [-169.930247, -19.008396], [-169.926381, -19.00742], [-169.921824, -19.007013], [-169.916005, -19.003106], [-169.895823, -18.965102], [-169.863718, -18.964044], [-169.851145, -18.965102]]]}}], "numberMatched": 1, "numberReturned": 1, "bbox": [-169.950429, -19.142755, -169.782908, -18.964044], "crs": "http://www.opengis.net/def/crs/EPSG/0/4326"}