{"type": "FeatureCollection", "id": "http://www.lexvo.org/page/iso639-1/rsm", "name": "rsm", "features": [{"type": "Feature", "id": "http://www.semwebtech.org/mondial/countries/RSM", "name": "", "dateprops": ["http://www.semwebtech.org/mondial/10/meta#independenceDate", "http://www.semwebtech.org/mondial/10/meta#independenceDate"], "properties": {"http://rdfs.org/ns/void#inDataset": ["http://www.semwebtech.org/mondial/md_dataset"], "http://www.opengis.net/ont/geosparql#hasGeometry": ["http://www.semwebtech.org/mondial/countries/RSM_geom"], "http://www.opengis.net/ont/geosparql#hasMetricArea": ["60"], "http://www.semwebtech.org/mondial/10/meta#capital": ["http://www.semwebtech.org/mondial/countries/RSM/cities/San+Marino"], "http://www.semwebtech.org/mondial/10/meta#carCode": ["http://www.lexvo.org/page/iso639-1/rsm"], "http://www.semwebtech.org/mondial/10/meta#gdpAgri": ["0.1"], "http://www.semwebtech.org/mondial/10/meta#gdpInd": ["39.2"], "http://www.semwebtech.org/mondial/10/meta#gdpServ": ["60.7"], "http://www.semwebtech.org/mondial/10/meta#gdpTotal": ["1866"], "http://www.semwebtech.org/mondial/10/meta#government": ["http://www.wikidata.org/entry/Q7270"], "http://www.semwebtech.org/mondial/10/meta#hasCity": ["http://www.semwebtech.org/mondial/countries/RSM/cities/San+Marino"], "http://www.semwebtech.org/mondial/10/meta#independenceDate": ["0301-01-01"], "http://www.semwebtech.org/mondial/10/meta#infantMortality": ["4.52"], "http://www.semwebtech.org/mondial/10/meta#neighbor": ["http://www.semwebtech.org/mondial/countries/I"], "http://www.semwebtech.org/mondial/10/meta#unemployment": ["7"], "http://www.w3.org/1999/02/22-rdf-syntax-ns#type": ["http://www.semwebtech.org/mondial/10/meta#Country"], "http://www.w3.org/2000/01/rdf-schema#label": ["San Marino"], "http://www.w3.org/2004/02/skos/core#prefLabel": ["Repubblica di San Marino (la)"], "http://www.w3.org/ns/sosa/hasObservation": ["http://www.semwebtech.org/mondial/countries/RSM_obeth1", "http://www.semwebtech.org/mondial/countries/RSM_obpop", "http://www.semwebtech.org/mondial/countries/RSM_obpophist0", "http://www.semwebtech.org/mondial/countries/RSM_obpophist1", "http://www.semwebtech.org/mondial/countries/RSM_obpophist2", "http://www.semwebtech.org/mondial/countries/RSM_obpophist3", "http://www.semwebtech.org/mondial/countries/RSM_obpophist4", "http://www.semwebtech.org/mondial/countries/RSM_obpophist5", "http://www.semwebtech.org/mondial/countries/RSM_obpophist6", "http://www.semwebtech.org/mondial/countries/RSM_obpophist7", "http://www.semwebtech.org/mondial/countries/RSM_obrel1", "http://www.semwebtech.org/mondial/countries/RSM_obrel2", "http://www.semwebtech.org/mondial/countries/RSM_obrel3"]}, "geometry": {"type": "Polygon", "coordinates": [[[12.42945, 43.892056], [12.399581, 43.903218], [12.385629, 43.924534], [12.395654, 43.948409], [12.411049, 43.959661], [12.421389, 43.967219], [12.453325, 43.979053], [12.48216, 43.982567], [12.489188, 43.97311], [12.492392, 43.956419], [12.490325, 43.939159], [12.483094, 43.929205], [12.48216, 43.927919], [12.479576, 43.9258], [12.478026, 43.923216], [12.477494, 43.920051], [12.478287, 43.917038], [12.460456, 43.895259], [12.42945, 43.892056]]]}}], "numberMatched": 1, "numberReturned": 1, "bbox": [12.385629, 43.892056, 12.492392, 43.982567], "crs": "http://www.opengis.net/def/crs/EPSG/0/4326"}