{"type": "FeatureCollection", "id": "http://www.lexvo.org/page/iso639-1/wg", "name": "wg", "features": [{"type": "Feature", "id": "http://www.semwebtech.org/mondial/countries/WG", "name": "", "dateprops": ["http://www.semwebtech.org/mondial/10/meta#independenceDate", "http://www.semwebtech.org/mondial/10/meta#independenceDate"], "properties": {"http://rdfs.org/ns/void#inDataset": ["http://www.semwebtech.org/mondial/md_dataset"], "http://www.opengis.net/ont/geosparql#hasGeometry": ["http://www.semwebtech.org/mondial/countries/WG_geom"], "http://www.opengis.net/ont/geosparql#hasMetricArea": ["344"], "http://www.semwebtech.org/mondial/10/meta#capital": ["http://www.semwebtech.org/mondial/countries/WG/cities/Saint+George's"], "http://www.semwebtech.org/mondial/10/meta#carCode": ["http://www.lexvo.org/page/iso639-1/wg"], "http://www.semwebtech.org/mondial/10/meta#gdpAgri": ["5.6"], "http://www.semwebtech.org/mondial/10/meta#gdpInd": ["15.8"], "http://www.semwebtech.org/mondial/10/meta#gdpServ": ["78.5"], "http://www.semwebtech.org/mondial/10/meta#gdpTotal": ["811"], "http://www.semwebtech.org/mondial/10/meta#government": ["parliamentary democracy and a Commonwealth realm"], "http://www.semwebtech.org/mondial/10/meta#hasCity": ["http://www.semwebtech.org/mondial/countries/WG/cities/Saint+George's"], "http://www.semwebtech.org/mondial/10/meta#independenceDate": ["1974-02-07"], "http://www.semwebtech.org/mondial/10/meta#infantMortality": ["10.5"], "http://www.semwebtech.org/mondial/10/meta#unemployment": ["33.5"], "http://www.semwebtech.org/mondial/10/meta#wasDependentOf": ["http://www.semwebtech.org/mondial/countries/GB"], "http://www.w3.org/1999/02/22-rdf-syntax-ns#type": ["http://www.semwebtech.org/mondial/10/meta#Country"], "http://www.w3.org/2000/01/rdf-schema#label": ["Grenada"], "http://www.w3.org/2004/02/skos/core#prefLabel": ["Grenada"], "http://www.w3.org/ns/sosa/hasObservation": ["http://www.semwebtech.org/mondial/countries/WG_obeth1", "http://www.semwebtech.org/mondial/countries/WG_obeth2", "http://www.semwebtech.org/mondial/countries/WG_obeth3", "http://www.semwebtech.org/mondial/countries/WG_obeth4", "http://www.semwebtech.org/mondial/countries/WG_obeth5", "http://www.semwebtech.org/mondial/countries/WG_obpop", "http://www.semwebtech.org/mondial/countries/WG_obpophist0", "http://www.semwebtech.org/mondial/countries/WG_obpophist1", "http://www.semwebtech.org/mondial/countries/WG_obpophist2", "http://www.semwebtech.org/mondial/countries/WG_obpophist3", "http://www.semwebtech.org/mondial/countries/WG_obpophist4", "http://www.semwebtech.org/mondial/countries/WG_obpophist5", "http://www.semwebtech.org/mondial/countries/WG_obrel1", "http://www.semwebtech.org/mondial/countries/WG_obrel2", "http://www.semwebtech.org/mondial/countries/WG_obrel3", "http://www.semwebtech.org/mondial/countries/WG_obrel4", "http://www.semwebtech.org/mondial/countries/WG_obrel5", "http://www.semwebtech.org/mondial/countries/WG_obrel6"]}, "geometry": {"type": "MultiPolygon", "coordinates": [[[[-61.612945, 12.214423], [-61.604563, 12.197455], [-61.602773, 12.182929], [-61.606313, 12.133775], [-61.608713, 12.126776], [-61.613108, 12.119859], [-61.619781, 12.10456], [-61.619456, 12.096747], [-61.61384, 12.08039], [-61.616363, 12.077297], [-61.621571, 12.074937], [-61.624501, 12.069037], [-61.625722, 12.061225], [-61.626047, 12.053046], [-61.631581, 12.044094], [-61.674428, 12.02204], [-61.674428, 12.029486], [-61.682973, 12.025377], [-61.689361, 12.019761], [-61.69343, 12.012274], [-61.694936, 12.002834], [-61.704254, 12.004543], [-61.713246, 12.00727], [-61.72175, 12.011054], [-61.729644, 12.015815], [-61.73998, 12.006903], [-61.756947, 12.003404], [-61.775543, 12.00434], [-61.790517, 12.008368], [-61.755849, 12.03026], [-61.749501, 12.036322], [-61.745961, 12.05093], [-61.74885, 12.062649], [-61.753774, 12.074164], [-61.756418, 12.087836], [-61.751047, 12.110093], [-61.730295, 12.149319], [-61.729644, 12.166653], [-61.671457, 12.23607], [-61.650502, 12.239732], [-61.627675, 12.236721], [-61.606028, 12.223375], [-61.606679, 12.220282], [-61.612945, 12.214423]]], [[[-61.428049, 12.454657], [-61.445668, 12.459784], [-61.462554, 12.455146], [-61.479237, 12.446723], [-61.496246, 12.440375], [-61.492787, 12.446479], [-61.486073, 12.462226], [-61.482655, 12.468329], [-61.485748, 12.468817], [-61.496246, 12.468329], [-61.494781, 12.472317], [-61.488881, 12.482001], [-61.467275, 12.475572], [-61.454335, 12.492825], [-61.443471, 12.516547], [-61.428049, 12.529731], [-61.42162, 12.513373], [-61.423329, 12.495185], [-61.427398, 12.475409], [-61.428049, 12.454657]]]]}}], "numberMatched": 1, "numberReturned": 1, "bbox": [-61.790517, 12.002834, -61.42162, 12.529731], "crs": "http://www.opengis.net/def/crs/EPSG/0/4326"}