{"type": "FeatureCollection", "id": "http://www.lexvo.org/page/iso639-1/sgp", "name": "sgp", "features": [{"type": "Feature", "id": "http://www.semwebtech.org/mondial/countries/SGP", "name": "", "dateprops": ["http://www.semwebtech.org/mondial/10/meta#independenceDate", "http://www.semwebtech.org/mondial/10/meta#independenceDate"], "properties": {"http://rdfs.org/ns/void#inDataset": ["http://www.semwebtech.org/mondial/md_dataset"], "http://www.opengis.net/ont/geosparql#hasGeometry": ["http://www.semwebtech.org/mondial/countries/SGP_geom"], "http://www.opengis.net/ont/geosparql#hasMetricArea": ["632.6"], "http://www.semwebtech.org/mondial/10/meta#capital": ["http://www.semwebtech.org/mondial/countries/SGP/cities/Singapore"], "http://www.semwebtech.org/mondial/10/meta#carCode": ["http://www.lexvo.org/page/iso639-1/sgp"], "http://www.semwebtech.org/mondial/10/meta#gdpAgri": ["0"], "http://www.semwebtech.org/mondial/10/meta#gdpInd": ["29.4"], "http://www.semwebtech.org/mondial/10/meta#gdpServ": ["70.6"], "http://www.semwebtech.org/mondial/10/meta#gdpTotal": ["295700"], "http://www.semwebtech.org/mondial/10/meta#government": ["parliamentary republic"], "http://www.semwebtech.org/mondial/10/meta#hasCity": ["http://www.semwebtech.org/mondial/countries/SGP/cities/Singapore"], "http://www.semwebtech.org/mondial/10/meta#independenceDate": ["1965-08-09"], "http://www.semwebtech.org/mondial/10/meta#infantMortality": ["2.53"], "http://www.semwebtech.org/mondial/10/meta#unemployment": ["1.9"], "http://www.semwebtech.org/mondial/10/meta#wasDependentOf": ["http://www.semwebtech.org/mondial/countries/MAL"], "http://www.w3.org/1999/02/22-rdf-syntax-ns#type": ["http://www.semwebtech.org/mondial/10/meta#Country"], "http://www.w3.org/2000/01/rdf-schema#label": ["Singapore"], "http://www.w3.org/2004/02/skos/core#prefLabel": ["\u65b0\u52a0\u5761\u5171\u548c\u56fd"], "http://www.w3.org/ns/sosa/hasObservation": ["http://www.semwebtech.org/mondial/countries/SGP_obeth1", "http://www.semwebtech.org/mondial/countries/SGP_obeth2", "http://www.semwebtech.org/mondial/countries/SGP_obeth3", "http://www.semwebtech.org/mondial/countries/SGP_obeth4", "http://www.semwebtech.org/mondial/countries/SGP_obpop", "http://www.semwebtech.org/mondial/countries/SGP_obpopg", "http://www.semwebtech.org/mondial/countries/SGP_obpophistcoll", "http://www.semwebtech.org/mondial/countries/SGP_obrel1", "http://www.semwebtech.org/mondial/countries/SGP_obrel2", "http://www.semwebtech.org/mondial/countries/SGP_obrel3", "http://www.semwebtech.org/mondial/countries/SGP_obrel4", "http://www.semwebtech.org/mondial/countries/SGP_obrel5", "http://www.semwebtech.org/mondial/countries/SGP_obrel6"]}, "geometry": {"type": "Polygon", "coordinates": [[[103.960785, 1.391099], [103.985688, 1.385443], [103.999522, 1.380316], [104.003429, 1.374172], [103.991873, 1.354926], [103.974864, 1.334459], [103.954356, 1.318101], [103.931895, 1.311469], [103.907237, 1.308743], [103.887706, 1.301256], [103.852712, 1.277289], [103.846934, 1.271918], [103.844086, 1.2685], [103.838878, 1.266262], [103.82602, 1.264309], [103.801606, 1.264797], [103.789561, 1.26789], [103.784434, 1.273871], [103.77589, 1.287584], [103.755138, 1.297105], [103.730154, 1.302924], [103.708751, 1.305243], [103.665294, 1.304104], [103.647634, 1.308417], [103.640391, 1.322252], [103.644705, 1.338039], [103.674571, 1.380316], [103.678884, 1.399237], [103.683849, 1.409898], [103.695079, 1.421332], [103.708344, 1.429389], [103.717947, 1.430976], [103.739757, 1.428127], [103.762218, 1.430976], [103.79005, 1.444281], [103.804942, 1.448635], [103.831554, 1.447089], [103.857188, 1.438707], [103.932465, 1.401109], [103.960785, 1.391099]]]}}], "numberMatched": 1, "numberReturned": 1, "bbox": [103.640391, 1.264309, 104.003429, 1.448635], "crs": "http://www.opengis.net/def/crs/EPSG/0/4326"}