{"type": "FeatureCollection", "id": "http://www.lexvo.org/page/iso639-1/gu", "name": "gu", "features": [{"type": "Feature", "id": "http://www.semwebtech.org/mondial/countries/GU", "name": "", "dateprops": [], "properties": {"http://rdfs.org/ns/void#inDataset": ["http://www.semwebtech.org/mondial/md_dataset"], "http://www.opengis.net/ont/geosparql#hasGeometry": ["http://www.semwebtech.org/mondial/countries/GU_geom"], "http://www.opengis.net/ont/geosparql#hasMetricArea": ["545"], "http://www.semwebtech.org/mondial/10/meta#capital": ["http://www.semwebtech.org/mondial/countries/GU/cities/Hag\u00e5t\u00f1a"], "http://www.semwebtech.org/mondial/10/meta#carCode": ["http://www.lexvo.org/page/iso639-1/gu"], "http://www.semwebtech.org/mondial/10/meta#dependentOf": ["http://www.semwebtech.org/mondial/countries/USA"], "http://www.semwebtech.org/mondial/10/meta#gdpTotal": ["4600"], "http://www.semwebtech.org/mondial/10/meta#government": ["organized"], "http://www.semwebtech.org/mondial/10/meta#hasCity": ["http://www.semwebtech.org/mondial/countries/GU/cities/Hag\u00e5t\u00f1a"], "http://www.semwebtech.org/mondial/10/meta#infantMortality": ["5.51"], "http://www.semwebtech.org/mondial/10/meta#unemployment": ["8.2"], "http://www.w3.org/1999/02/22-rdf-syntax-ns#type": ["http://www.semwebtech.org/mondial/10/meta#Country"], "http://www.w3.org/2000/01/rdf-schema#label": ["Guam"], "http://www.w3.org/ns/sosa/hasObservation": ["http://www.semwebtech.org/mondial/countries/GU_obeth1", "http://www.semwebtech.org/mondial/countries/GU_obeth2", "http://www.semwebtech.org/mondial/countries/GU_obeth3", "http://www.semwebtech.org/mondial/countries/GU_obeth4", "http://www.semwebtech.org/mondial/countries/GU_obeth5", "http://www.semwebtech.org/mondial/countries/GU_obeth6", "http://www.semwebtech.org/mondial/countries/GU_obeth7", "http://www.semwebtech.org/mondial/countries/GU_obeth8", "http://www.semwebtech.org/mondial/countries/GU_obeth9", "http://www.semwebtech.org/mondial/countries/GU_obpop", "http://www.semwebtech.org/mondial/countries/GU_obpophist0", "http://www.semwebtech.org/mondial/countries/GU_obpophist1", "http://www.semwebtech.org/mondial/countries/GU_obpophist2", "http://www.semwebtech.org/mondial/countries/GU_obpophist3", "http://www.semwebtech.org/mondial/countries/GU_obpophist4", "http://www.semwebtech.org/mondial/countries/GU_obpophist5", "http://www.semwebtech.org/mondial/countries/GU_obpophist6", "http://www.semwebtech.org/mondial/countries/GU_obpophist7", "http://www.semwebtech.org/mondial/countries/GU_obrel1", "http://www.semwebtech.org/mondial/countries/GU_obrel2", "http://www.semwebtech.org/mondial/countries/GU_obrel3", "http://www.semwebtech.org/mondial/countries/GU_obrel4"]}, "geometry": {"type": "Polygon", "coordinates": [[[144.886404, 13.640204], [144.896658, 13.617987], [144.914317, 13.605414], [144.934418, 13.59984], [144.951915, 13.598578], [144.952159, 13.586859], [144.937673, 13.560533], [144.906993, 13.516669], [144.871837, 13.485175], [144.808279, 13.445787], [144.783458, 13.420478], [144.769379, 13.379136], [144.760102, 13.285631], [144.735606, 13.249172], [144.718028, 13.241848], [144.69752, 13.241034], [144.680675, 13.246772], [144.670421, 13.264838], [144.656749, 13.28205], [144.653575, 13.287014], [144.647472, 13.324897], [144.644298, 13.33161], [144.639496, 13.33747], [144.633637, 13.342108], [144.626313, 13.345364], [144.636567, 13.355414], [144.643077, 13.365709], [144.646495, 13.378485], [144.647472, 13.396226], [144.645518, 13.404486], [144.640473, 13.414781], [144.634776, 13.423529], [144.624197, 13.43122], [144.628673, 13.438788], [144.636485, 13.443101], [144.640636, 13.437812], [144.65447, 13.439154], [144.714854, 13.473456], [144.72877, 13.485582], [144.783458, 13.516669], [144.794119, 13.527086], [144.803233, 13.53913], [144.811209, 13.553616], [144.832205, 13.620673], [144.838634, 13.632758], [144.850434, 13.643744], [144.86671, 13.653022], [144.880626, 13.65412], [144.886404, 13.640204]]]}}], "numberMatched": 1, "numberReturned": 1, "bbox": [144.624197, 13.241034, 144.952159, 13.65412], "crs": "http://www.opengis.net/def/crs/EPSG/0/4326"}