{"type": "FeatureCollection", "id": "http://www.lexvo.org/page/iso639-1/sbar", "name": "sbar", "features": [{"type": "Feature", "id": "http://www.semwebtech.org/mondial/countries/SBAR", "name": "", "dateprops": [], "properties": {"http://rdfs.org/ns/void#inDataset": ["http://www.semwebtech.org/mondial/md_dataset"], "http://www.opengis.net/ont/geosparql#hasGeometry": ["http://www.semwebtech.org/mondial/countries/SBAR_geom"], "http://www.opengis.net/ont/geosparql#hasMetricArea": ["21"], "http://www.semwebtech.org/mondial/10/meta#capital": ["http://www.semwebtech.org/mondial/countries/SBAR/cities/Gustavia"], "http://www.semwebtech.org/mondial/10/meta#carCode": ["http://www.lexvo.org/page/iso639-1/sbar"], "http://www.semwebtech.org/mondial/10/meta#dependentOf": ["http://www.semwebtech.org/mondial/countries/F"], "http://www.semwebtech.org/mondial/10/meta#government": ["http://www.wikidata.org/entity/Q719487"], "http://www.semwebtech.org/mondial/10/meta#hasCity": ["http://www.semwebtech.org/mondial/countries/SBAR/cities/Gustavia"], "http://www.w3.org/1999/02/22-rdf-syntax-ns#type": ["http://www.semwebtech.org/mondial/10/meta#Country"], "http://www.w3.org/2000/01/rdf-schema#label": ["Saint Barthelemy"], "http://www.w3.org/2004/02/skos/core#prefLabel": ["Collectivit\u00e9 de Saint-Barth\u00e9lemy"], "http://www.w3.org/ns/sosa/hasObservation": ["http://www.semwebtech.org/mondial/countries/SBAR_obpop", "http://www.semwebtech.org/mondial/countries/SBAR_obpophistcoll", "http://www.semwebtech.org/mondial/countries/SBAR_obrel1"]}, "geometry": {"type": "Polygon", "coordinates": [[[-62.838857, 17.881985], [-62.850942, 17.890448], [-62.861318, 17.905422], [-62.86734, 17.920396], [-62.866119, 17.929145], [-62.857411, 17.925035], [-62.791656, 17.915473], [-62.79894, 17.904486], [-62.810129, 17.892279], [-62.823842, 17.883246], [-62.838857, 17.881985]]]}}], "numberMatched": 1, "numberReturned": 1, "bbox": [-62.86734, 17.881985, -62.791656, 17.929145], "crs": "http://www.opengis.net/def/crs/EPSG/0/4326"}