{"type": "FeatureCollection", "id": "http://www.lexvo.org/page/iso639-1/mc", "name": "mc", "features": [{"type": "Feature", "id": "http://www.semwebtech.org/mondial/countries/MC", "name": "", "dateprops": ["http://www.semwebtech.org/mondial/10/meta#independenceDate", "http://www.semwebtech.org/mondial/10/meta#independenceDate"], "properties": {"http://rdfs.org/ns/void#inDataset": ["http://www.semwebtech.org/mondial/md_dataset"], "http://www.opengis.net/ont/geosparql#hasGeometry": ["http://www.semwebtech.org/mondial/countries/MC_geom"], "http://www.opengis.net/ont/geosparql#hasMetricArea": ["1.9"], "http://www.semwebtech.org/mondial/10/meta#capital": ["http://www.semwebtech.org/mondial/countries/MC/cities/Monaco"], "http://www.semwebtech.org/mondial/10/meta#carCode": ["http://www.lexvo.org/page/iso639-1/mc"], "http://www.semwebtech.org/mondial/10/meta#gdpAgri": ["0"], "http://www.semwebtech.org/mondial/10/meta#gdpInd": ["10"], "http://www.semwebtech.org/mondial/10/meta#gdpServ": ["90"], "http://www.semwebtech.org/mondial/10/meta#gdpTotal": ["5748"], "http://www.semwebtech.org/mondial/10/meta#government": ["constitutional monarchy"], "http://www.semwebtech.org/mondial/10/meta#hasCity": ["http://www.semwebtech.org/mondial/countries/MC/cities/Monaco", "http://www.semwebtech.org/mondial/countries/MC/cities/Monte+Carlo"], "http://www.semwebtech.org/mondial/10/meta#independenceDate": ["1297-01-08"], "http://www.semwebtech.org/mondial/10/meta#infantMortality": ["1.81"], "http://www.semwebtech.org/mondial/10/meta#neighbor": ["http://www.semwebtech.org/mondial/countries/F"], "http://www.semwebtech.org/mondial/10/meta#unemployment": ["2"], "http://www.w3.org/1999/02/22-rdf-syntax-ns#type": ["http://www.semwebtech.org/mondial/10/meta#Country"], "http://www.w3.org/2000/01/rdf-schema#label": ["Monaco"], "http://www.w3.org/2004/02/skos/core#prefLabel": ["la Principaut\u00e9 de Monaco "], "http://www.w3.org/ns/sosa/hasObservation": ["http://www.semwebtech.org/mondial/countries/MC_obeth1", "http://www.semwebtech.org/mondial/countries/MC_obeth2", "http://www.semwebtech.org/mondial/countries/MC_obeth3", "http://www.semwebtech.org/mondial/countries/MC_obeth4", "http://www.semwebtech.org/mondial/countries/MC_obeth5", "http://www.semwebtech.org/mondial/countries/MC_obeth6", "http://www.semwebtech.org/mondial/countries/MC_obeth7", "http://www.semwebtech.org/mondial/countries/MC_obpop", "http://www.semwebtech.org/mondial/countries/MC_obpopg", "http://www.semwebtech.org/mondial/countries/MC_obpophistcoll", "http://www.semwebtech.org/mondial/countries/MC_obrel1", "http://www.semwebtech.org/mondial/countries/MC_obrel2", "http://www.semwebtech.org/mondial/countries/MC_obrel3", "http://www.semwebtech.org/mondial/countries/MC_obrel4", "http://www.semwebtech.org/mondial/countries/MC_obrel5", "http://www.semwebtech.org/mondial/countries/MC_obrel6"]}, "geometry": {"type": "Polygon", "coordinates": [[[7.437454, 43.743361], [7.432845, 43.739853], [7.417957, 43.730904], [7.404319, 43.717969], [7.380723, 43.719273], [7.36575, 43.72273], [7.367263, 43.734125], [7.372655, 43.745832], [7.387538, 43.757899], [7.406969, 43.763506], [7.426246, 43.755464], [7.437454, 43.743361]]]}}], "numberMatched": 1, "numberReturned": 1, "bbox": [7.36575, 43.717969, 7.437454, 43.763506], "crs": "http://www.opengis.net/def/crs/EPSG/0/4326"}